{"type":"FeatureCollection", "features": [
{"type":"Feature","geometry":{"type":"Point","coordinates":[125.99016,8.217784]},"properties":{"id":1,"ofds_id":"34d3fbb5-6fb2-40b2-add6-094acac4a778","name":"bunawan","phase":null,"status":"operational","address__streetAddress":null,"address__locality":null,"address__region":null,"address__postalCode":null,"address__country":null,"supportingInfrastructure__type":null,"supportingInfrastructure__description":null,"supportingInfrastructure__owner":null,"supportingInfrastructure__spareCapacity":null,"accessPoint":null,"power":null,"transmissionMediumOwner":1,"network_id":1,"r":3,"fill":"#000000","fill-opacity":1,"stroke-opacity":1,"stroke-width":0},"id":1},
{"type":"Feature","geometry":{"type":"Point","coordinates":[121.768877,16.937671]},"properties":{"id":2,"ofds_id":"a7c733f4-d22d-4245-97fe-bb72003a83c0","name":"Cauayan City","phase":null,"status":"operational","address__streetAddress":null,"address__locality":null,"address__region":null,"address__postalCode":null,"address__country":null,"supportingInfrastructure__type":null,"supportingInfrastructure__description":null,"supportingInfrastructure__owner":null,"supportingInfrastructure__spareCapacity":null,"accessPoint":null,"power":null,"transmissionMediumOwner":1,"network_id":1,"r":3,"fill":"#000000","fill-opacity":1,"stroke-opacity":1,"stroke-width":0},"id":2},
{"type":"Feature","geometry":{"type":"Point","coordinates":[121.724857,17.612858]},"properties":{"id":3,"ofds_id":"660c07d1-80fc-4ecd-b660-95d7ca09d316","name":"Tuguegarao City","phase":null,"status":"operational","address__streetAddress":null,"address__locality":null,"address__region":null,"address__postalCode":null,"address__country":null,"supportingInfrastructure__type":null,"supportingInfrastructure__description":null,"supportingInfrastructure__owner":null,"supportingInfrastructure__spareCapacity":null,"accessPoint":null,"power":null,"transmissionMediumOwner":1,"network_id":1,"r":3,"fill":"#000000","fill-opacity":1,"stroke-opacity":1,"stroke-width":0},"id":3},
{"type":"Feature","geometry":{"type":"Point","coordinates":[121.518599,18.412627]},"properties":{"id":4,"ofds_id":"9d526331-ab7b-4ab1-ad2b-20e3da3454f2","name":"Ballesteros","phase":null,"status":"operational","address__streetAddress":null,"address__locality":null,"address__region":null,"address__postalCode":null,"address__country":null,"supportingInfrastructure__type":null,"supportingInfrastructure__description":null,"supportingInfrastructure__owner":null,"supportingInfrastructure__spareCapacity":null,"accessPoint":null,"power":null,"transmissionMediumOwner":1,"network_id":1,"r":3,"fill":"#000000","fill-opacity":1,"stroke-opacity":1,"stroke-width":0},"id":4},
{"type":"Feature","geometry":{"type":"Point","coordinates":[120.590573,18.190124]},"properties":{"id":5,"ofds_id":"beae26b3-a9a4-4ffe-8d01-32cc9cab6a6e","name":"Laoag City","phase":null,"status":"operational","address__streetAddress":null,"address__locality":null,"address__region":null,"address__postalCode":null,"address__country":null,"supportingInfrastructure__type":null,"supportingInfrastructure__description":null,"supportingInfrastructure__owner":null,"supportingInfrastructure__spareCapacity":null,"accessPoint":null,"power":null,"transmissionMediumOwner":1,"network_id":1,"r":3,"fill":"#000000","fill-opacity":1,"stroke-opacity":1,"stroke-width":0},"id":5},
{"type":"Feature","geometry":{"type":"Point","coordinates":[120.351008,17.608249]},"properties":{"id":6,"ofds_id":"f9226315-7dfe-4312-9d78-6daa42089ed3","name":"San Vicente","phase":null,"status":"operational","address__streetAddress":null,"address__locality":null,"address__region":null,"address__postalCode":null,"address__country":null,"supportingInfrastructure__type":null,"supportingInfrastructure__description":null,"supportingInfrastructure__owner":null,"supportingInfrastructure__spareCapacity":null,"accessPoint":null,"power":null,"transmissionMediumOwner":1,"network_id":1,"r":3,"fill":"#000000","fill-opacity":1,"stroke-opacity":1,"stroke-width":0},"id":6},
{"type":"Feature","geometry":{"type":"Point","coordinates":[120.316996,16.615849]},"properties":{"id":7,"ofds_id":"9f2725e0-c57e-47f7-9256-d3c724839532","name":"San Fernando City","phase":null,"status":"operational","address__streetAddress":null,"address__locality":null,"address__region":null,"address__postalCode":null,"address__country":null,"supportingInfrastructure__type":null,"supportingInfrastructure__description":null,"supportingInfrastructure__owner":null,"supportingInfrastructure__spareCapacity":null,"accessPoint":null,"power":null,"transmissionMediumOwner":1,"network_id":1,"r":3,"fill":"#000000","fill-opacity":1,"stroke-opacity":1,"stroke-width":0},"id":7},
{"type":"Feature","geometry":{"type":"Point","coordinates":[120.329966,16.527339]},"properties":{"id":8,"ofds_id":"e16e0161-3de2-4826-a491-c6ed9111e237","name":"Bauang","phase":null,"status":"operational","address__streetAddress":null,"address__locality":null,"address__region":null,"address__postalCode":null,"address__country":null,"supportingInfrastructure__type":null,"supportingInfrastructure__description":null,"supportingInfrastructure__owner":null,"supportingInfrastructure__spareCapacity":null,"accessPoint":null,"power":null,"transmissionMediumOwner":1,"network_id":1,"r":3,"fill":"#000000","fill-opacity":1,"stroke-opacity":1,"stroke-width":0},"id":8},
{"type":"Feature","geometry":{"type":"Point","coordinates":[120.590905,16.413881]},"properties":{"id":9,"ofds_id":"07f423d6-8e06-4336-98f2-f7557844b055","name":"Baguio","phase":null,"status":"operational","address__streetAddress":null,"address__locality":null,"address__region":null,"address__postalCode":null,"address__country":null,"supportingInfrastructure__type":null,"supportingInfrastructure__description":null,"supportingInfrastructure__owner":null,"supportingInfrastructure__spareCapacity":null,"accessPoint":null,"power":null,"transmissionMediumOwner":1,"network_id":1,"r":3,"fill":"#000000","fill-opacity":1,"stroke-opacity":1,"stroke-width":0},"id":9},
{"type":"Feature","geometry":{"type":"Point","coordinates":[120.58707,15.48797]},"properties":{"id":10,"ofds_id":"0661ffa0-e719-4d87-a472-a104f85079d0","name":"Tarlac City","phase":null,"status":"operational","address__streetAddress":null,"address__locality":null,"address__region":null,"address__postalCode":null,"address__country":null,"supportingInfrastructure__type":null,"supportingInfrastructure__description":null,"supportingInfrastructure__owner":null,"supportingInfrastructure__spareCapacity":null,"accessPoint":null,"power":null,"transmissionMediumOwner":1,"network_id":1,"r":3,"fill":"#000000","fill-opacity":1,"stroke-opacity":1,"stroke-width":0},"id":10},
{"type":"Feature","geometry":{"type":"Point","coordinates":[120.920738,15.584159]},"properties":{"id":11,"ofds_id":"e2e24666-ac5c-4192-a8b7-234cb4f96792","name":"New Talavera","phase":null,"status":"operational","address__streetAddress":null,"address__locality":null,"address__region":null,"address__postalCode":null,"address__country":null,"supportingInfrastructure__type":null,"supportingInfrastructure__description":null,"supportingInfrastructure__owner":null,"supportingInfrastructure__spareCapacity":null,"accessPoint":null,"power":null,"transmissionMediumOwner":1,"network_id":1,"r":3,"fill":"#000000","fill-opacity":1,"stroke-opacity":1,"stroke-width":0},"id":11},
{"type":"Feature","geometry":{"type":"Point","coordinates":[121.010448,15.499772]},"properties":{"id":12,"ofds_id":"53956376-272b-4499-acad-f7d59cb74429","name":"Cabanatuan City","phase":null,"status":"operational","address__streetAddress":null,"address__locality":null,"address__region":null,"address__postalCode":null,"address__country":null,"supportingInfrastructure__type":null,"supportingInfrastructure__description":null,"supportingInfrastructure__owner":null,"supportingInfrastructure__spareCapacity":null,"accessPoint":null,"power":null,"transmissionMediumOwner":1,"network_id":1,"r":3,"fill":"#000000","fill-opacity":1,"stroke-opacity":1,"stroke-width":0},"id":12},
{"type":"Feature","geometry":{"type":"Point","coordinates":[120.948349,15.304211]},"properties":{"id":13,"ofds_id":"a5f0e574-dda5-45a4-9c51-55d6d46b4c8a","name":"Gapan City","phase":null,"status":"operational","address__streetAddress":null,"address__locality":null,"address__region":null,"address__postalCode":null,"address__country":null,"supportingInfrastructure__type":null,"supportingInfrastructure__description":null,"supportingInfrastructure__owner":null,"supportingInfrastructure__spareCapacity":null,"accessPoint":null,"power":null,"transmissionMediumOwner":1,"network_id":1,"r":3,"fill":"#000000","fill-opacity":1,"stroke-opacity":1,"stroke-width":0},"id":13},
{"type":"Feature","geometry":{"type":"Point","coordinates":[120.588901,15.17963]},"properties":{"id":14,"ofds_id":"3f8064b6-e362-4a7f-8420-6bb0d0acba40","name":"Barangay Dau","phase":null,"status":"operational","address__streetAddress":null,"address__locality":null,"address__region":null,"address__postalCode":null,"address__country":null,"supportingInfrastructure__type":null,"supportingInfrastructure__description":null,"supportingInfrastructure__owner":null,"supportingInfrastructure__spareCapacity":null,"accessPoint":null,"power":null,"transmissionMediumOwner":1,"network_id":1,"r":3,"fill":"#000000","fill-opacity":1,"stroke-opacity":1,"stroke-width":0},"id":14},
{"type":"Feature","geometry":{"type":"Point","coordinates":[120.810099,14.859828]},"properties":{"id":15,"ofds_id":"450a4b84-6cbd-4384-a94b-bf10f26b9a95","name":"Malolos","phase":null,"status":"operational","address__streetAddress":null,"address__locality":null,"address__region":null,"address__postalCode":null,"address__country":null,"supportingInfrastructure__type":null,"supportingInfrastructure__description":null,"supportingInfrastructure__owner":null,"supportingInfrastructure__spareCapacity":null,"accessPoint":null,"power":null,"transmissionMediumOwner":1,"network_id":1,"r":3,"fill":"#000000","fill-opacity":1,"stroke-opacity":1,"stroke-width":0},"id":15},
{"type":"Feature","geometry":{"type":"Point","coordinates":[121.180799,16.51715]},"properties":{"id":16,"ofds_id":"b0184a44-f59c-4df6-9307-71dcdbd12086","name":"Solano","phase":null,"status":"operational","address__streetAddress":null,"address__locality":null,"address__region":null,"address__postalCode":null,"address__country":null,"supportingInfrastructure__type":null,"supportingInfrastructure__description":null,"supportingInfrastructure__owner":null,"supportingInfrastructure__spareCapacity":null,"accessPoint":null,"power":null,"transmissionMediumOwner":1,"network_id":1,"r":3,"fill":"#000000","fill-opacity":1,"stroke-opacity":1,"stroke-width":0},"id":16},
{"type":"Feature","geometry":{"type":"Point","coordinates":[120.982906,14.586006]},"properties":{"id":17,"ofds_id":"cf85e68f-5104-4630-8a6f-67b2def46143","name":"Ermita","phase":null,"status":"operational","address__streetAddress":null,"address__locality":null,"address__region":null,"address__postalCode":null,"address__country":null,"supportingInfrastructure__type":null,"supportingInfrastructure__description":null,"supportingInfrastructure__owner":null,"supportingInfrastructure__spareCapacity":null,"accessPoint":null,"power":null,"transmissionMediumOwner":1,"network_id":1,"r":3,"fill":"#000000","fill-opacity":1,"stroke-opacity":1,"stroke-width":0},"id":17},
{"type":"Feature","geometry":{"type":"Point","coordinates":[120.996733,14.613428]},"properties":{"id":18,"ofds_id":"423135ae-c37b-4259-820e-498bb377e961","name":"Espana Station","phase":null,"status":"operational","address__streetAddress":null,"address__locality":null,"address__region":null,"address__postalCode":null,"address__country":null,"supportingInfrastructure__type":null,"supportingInfrastructure__description":null,"supportingInfrastructure__owner":null,"supportingInfrastructure__spareCapacity":null,"accessPoint":null,"power":null,"transmissionMediumOwner":1,"network_id":1,"r":3,"fill":"#000000","fill-opacity":1,"stroke-opacity":1,"stroke-width":0},"id":18},
{"type":"Feature","geometry":{"type":"Point","coordinates":[121.024258,14.598443]},"properties":{"id":19,"ofds_id":"15092cdf-7a26-4b1e-bdee-6273ff212b13","name":"San Juan City","phase":null,"status":"operational","address__streetAddress":null,"address__locality":null,"address__region":null,"address__postalCode":null,"address__country":null,"supportingInfrastructure__type":null,"supportingInfrastructure__description":null,"supportingInfrastructure__owner":null,"supportingInfrastructure__spareCapacity":null,"accessPoint":null,"power":null,"transmissionMediumOwner":1,"network_id":1,"r":3,"fill":"#000000","fill-opacity":1,"stroke-opacity":1,"stroke-width":0},"id":19},
{"type":"Feature","geometry":{"type":"Point","coordinates":[121.043533,14.729662]},"properties":{"id":20,"ofds_id":"08d461fe-b2fc-470b-9fcc-6d31341decce","name":"Cañero Subdivision","phase":null,"status":"operational","address__streetAddress":null,"address__locality":null,"address__region":null,"address__postalCode":null,"address__country":null,"supportingInfrastructure__type":null,"supportingInfrastructure__description":null,"supportingInfrastructure__owner":null,"supportingInfrastructure__spareCapacity":null,"accessPoint":null,"power":null,"transmissionMediumOwner":1,"network_id":1,"r":3,"fill":"#000000","fill-opacity":1,"stroke-opacity":1,"stroke-width":0},"id":20},
{"type":"Feature","geometry":{"type":"Point","coordinates":[121.0218,14.559899]},"properties":{"id":21,"ofds_id":"a75a6393-70ed-4842-bac6-d209e39c0154","name":"Valero","phase":null,"status":"operational","address__streetAddress":null,"address__locality":null,"address__region":null,"address__postalCode":null,"address__country":null,"supportingInfrastructure__type":null,"supportingInfrastructure__description":null,"supportingInfrastructure__owner":null,"supportingInfrastructure__spareCapacity":null,"accessPoint":null,"power":null,"transmissionMediumOwner":1,"network_id":1,"r":3,"fill":"#000000","fill-opacity":1,"stroke-opacity":1,"stroke-width":0},"id":21},
{"type":"Feature","geometry":{"type":"Point","coordinates":[121.074198,14.308424]},"properties":{"id":22,"ofds_id":"e78210ac-97ea-4421-b45a-d01dae691cba","name":"Binan","phase":null,"status":"operational","address__streetAddress":null,"address__locality":null,"address__region":null,"address__postalCode":null,"address__country":null,"supportingInfrastructure__type":null,"supportingInfrastructure__description":null,"supportingInfrastructure__owner":null,"supportingInfrastructure__spareCapacity":null,"accessPoint":null,"power":null,"transmissionMediumOwner":1,"network_id":1,"r":3,"fill":"#000000","fill-opacity":1,"stroke-opacity":1,"stroke-width":0},"id":22},
{"type":"Feature","geometry":{"type":"Point","coordinates":[121.322861,13.961048]},"properties":{"id":23,"ofds_id":"c02b3913-0ed5-4ef7-bf34-7293b0107f64","name":"Tiaong","phase":null,"status":"operational","address__streetAddress":null,"address__locality":null,"address__region":null,"address__postalCode":null,"address__country":null,"supportingInfrastructure__type":null,"supportingInfrastructure__description":null,"supportingInfrastructure__owner":null,"supportingInfrastructure__spareCapacity":null,"accessPoint":null,"power":null,"transmissionMediumOwner":1,"network_id":1,"r":3,"fill":"#000000","fill-opacity":1,"stroke-opacity":1,"stroke-width":0},"id":23},
{"type":"Feature","geometry":{"type":"Point","coordinates":[120.940407,14.326941]},"properties":{"id":24,"ofds_id":"1f361776-c6df-431c-b84b-246e4f3385b9","name":"Dasmarinas","phase":null,"status":"operational","address__streetAddress":null,"address__locality":null,"address__region":null,"address__postalCode":null,"address__country":null,"supportingInfrastructure__type":null,"supportingInfrastructure__description":null,"supportingInfrastructure__owner":null,"supportingInfrastructure__spareCapacity":null,"accessPoint":null,"power":null,"transmissionMediumOwner":1,"network_id":1,"r":3,"fill":"#000000","fill-opacity":1,"stroke-opacity":1,"stroke-width":0},"id":24},
{"type":"Feature","geometry":{"type":"Point","coordinates":[121.160057,13.939076]},"properties":{"id":25,"ofds_id":"28f8c4d3-910a-492f-b4c8-c1b0ab348bed","name":"Lipa City","phase":null,"status":"operational","address__streetAddress":null,"address__locality":null,"address__region":null,"address__postalCode":null,"address__country":null,"supportingInfrastructure__type":null,"supportingInfrastructure__description":null,"supportingInfrastructure__owner":null,"supportingInfrastructure__spareCapacity":null,"accessPoint":null,"power":null,"transmissionMediumOwner":1,"network_id":1,"r":3,"fill":"#000000","fill-opacity":1,"stroke-opacity":1,"stroke-width":0},"id":25},
{"type":"Feature","geometry":{"type":"Point","coordinates":[120.69534,14.046976]},"properties":{"id":26,"ofds_id":"88f81e91-31f8-44c0-b7a8-954f802357be","name":"Nasugbu, Batangas","phase":null,"status":"operational","address__streetAddress":null,"address__locality":null,"address__region":null,"address__postalCode":null,"address__country":null,"supportingInfrastructure__type":null,"supportingInfrastructure__description":null,"supportingInfrastructure__owner":null,"supportingInfrastructure__spareCapacity":null,"accessPoint":null,"power":null,"transmissionMediumOwner":1,"network_id":1,"r":3,"fill":"#000000","fill-opacity":1,"stroke-opacity":1,"stroke-width":0},"id":26},
{"type":"Feature","geometry":{"type":"Point","coordinates":[121.049441,13.770757]},"properties":{"id":27,"ofds_id":"4e565ddd-c6dd-4010-8a3f-846690c9ff3b","name":"Batangas City","phase":null,"status":"operational","address__streetAddress":null,"address__locality":null,"address__region":null,"address__postalCode":null,"address__country":null,"supportingInfrastructure__type":null,"supportingInfrastructure__description":null,"supportingInfrastructure__owner":null,"supportingInfrastructure__spareCapacity":null,"accessPoint":null,"power":null,"transmissionMediumOwner":1,"network_id":1,"r":3,"fill":"#000000","fill-opacity":1,"stroke-opacity":1,"stroke-width":0},"id":27},
{"type":"Feature","geometry":{"type":"Point","coordinates":[120.615107,13.265515]},"properties":{"id":28,"ofds_id":"7699d2b5-885b-45a3-b42a-cd15a334cb8c","name":"Mamburao","phase":null,"status":"operational","address__streetAddress":null,"address__locality":null,"address__region":null,"address__postalCode":null,"address__country":null,"supportingInfrastructure__type":null,"supportingInfrastructure__description":null,"supportingInfrastructure__owner":null,"supportingInfrastructure__spareCapacity":null,"accessPoint":null,"power":null,"transmissionMediumOwner":1,"network_id":1,"r":3,"fill":"#000000","fill-opacity":1,"stroke-opacity":1,"stroke-width":0},"id":28},
{"type":"Feature","geometry":{"type":"Point","coordinates":[121.054716,12.399792]},"properties":{"id":29,"ofds_id":"4c0899f3-91ea-44bf-a934-f20a89873ca9","name":"San Jose","phase":null,"status":"operational","address__streetAddress":null,"address__locality":null,"address__region":null,"address__postalCode":null,"address__country":null,"supportingInfrastructure__type":null,"supportingInfrastructure__description":null,"supportingInfrastructure__owner":null,"supportingInfrastructure__spareCapacity":null,"accessPoint":null,"power":null,"transmissionMediumOwner":1,"network_id":1,"r":3,"fill":"#000000","fill-opacity":1,"stroke-opacity":1,"stroke-width":0},"id":29},
{"type":"Feature","geometry":{"type":"Point","coordinates":[123.279713,13.546243]},"properties":{"id":30,"ofds_id":"a3b2b5ec-619f-4c8b-aa4b-d39e7f2c16e7","name":"Pili","phase":null,"status":"operational","address__streetAddress":null,"address__locality":null,"address__region":null,"address__postalCode":null,"address__country":null,"supportingInfrastructure__type":null,"supportingInfrastructure__description":null,"supportingInfrastructure__owner":null,"supportingInfrastructure__spareCapacity":null,"accessPoint":null,"power":null,"transmissionMediumOwner":1,"network_id":1,"r":3,"fill":"#000000","fill-opacity":1,"stroke-opacity":1,"stroke-width":0},"id":30},
{"type":"Feature","geometry":{"type":"Point","coordinates":[123.735728,13.144304]},"properties":{"id":31,"ofds_id":"0d33cb8b-b778-4982-b6ef-4a9ad4281742","name":"Legazpi City","phase":null,"status":"operational","address__streetAddress":null,"address__locality":null,"address__region":null,"address__postalCode":null,"address__country":null,"supportingInfrastructure__type":null,"supportingInfrastructure__description":null,"supportingInfrastructure__owner":null,"supportingInfrastructure__spareCapacity":null,"accessPoint":null,"power":null,"transmissionMediumOwner":1,"network_id":1,"r":3,"fill":"#000000","fill-opacity":1,"stroke-opacity":1,"stroke-width":0},"id":31},
{"type":"Feature","geometry":{"type":"Point","coordinates":[121.684533,13.969134]},"properties":{"id":32,"ofds_id":"ece6d616-57c4-477f-b6e9-edb166ee2223","name":"Pagbilao,\nQuezon","phase":null,"status":"operational","address__streetAddress":null,"address__locality":null,"address__region":null,"address__postalCode":null,"address__country":null,"supportingInfrastructure__type":null,"supportingInfrastructure__description":null,"supportingInfrastructure__owner":null,"supportingInfrastructure__spareCapacity":null,"accessPoint":null,"power":null,"transmissionMediumOwner":1,"network_id":1,"r":3,"fill":"#000000","fill-opacity":1,"stroke-opacity":1,"stroke-width":0},"id":32},
{"type":"Feature","geometry":{"type":"Point","coordinates":[124.592992,12.070776]},"properties":{"id":33,"ofds_id":"35a1bff9-b96c-4358-86f2-5bd0e48f2e58","name":"Calbayog, Samar","phase":null,"status":"operational","address__streetAddress":null,"address__locality":null,"address__region":null,"address__postalCode":null,"address__country":null,"supportingInfrastructure__type":null,"supportingInfrastructure__description":null,"supportingInfrastructure__owner":null,"supportingInfrastructure__spareCapacity":null,"accessPoint":null,"power":null,"transmissionMediumOwner":1,"network_id":1,"r":3,"fill":"#000000","fill-opacity":1,"stroke-opacity":1,"stroke-width":0},"id":33},
{"type":"Feature","geometry":{"type":"Point","coordinates":[125.001099,11.231749]},"properties":{"id":34,"ofds_id":"ce3a9ff3-e7b2-4cf8-9bd9-b4a4aea39827","name":"Tacloban City","phase":null,"status":"operational","address__streetAddress":null,"address__locality":null,"address__region":null,"address__postalCode":null,"address__country":null,"supportingInfrastructure__type":null,"supportingInfrastructure__description":null,"supportingInfrastructure__owner":null,"supportingInfrastructure__spareCapacity":null,"accessPoint":null,"power":null,"transmissionMediumOwner":1,"network_id":1,"r":3,"fill":"#000000","fill-opacity":1,"stroke-opacity":1,"stroke-width":0},"id":34},
{"type":"Feature","geometry":{"type":"Point","coordinates":[124.837968,10.134608]},"properties":{"id":35,"ofds_id":"3cdc7894-a282-4c4d-b376-1b28c66a73f7","name":"Maasin","phase":null,"status":"operational","address__streetAddress":null,"address__locality":null,"address__region":null,"address__postalCode":null,"address__country":null,"supportingInfrastructure__type":null,"supportingInfrastructure__description":null,"supportingInfrastructure__owner":null,"supportingInfrastructure__spareCapacity":null,"accessPoint":null,"power":null,"transmissionMediumOwner":1,"network_id":1,"r":3,"fill":"#000000","fill-opacity":1,"stroke-opacity":1,"stroke-width":0},"id":35},
{"type":"Feature","geometry":{"type":"Point","coordinates":[124.618172,11.037358]},"properties":{"id":36,"ofds_id":"1ad69667-91f2-4b0d-a9ce-8ea497888f4c","name":"Ormoc City, Leyte","phase":null,"status":"operational","address__streetAddress":null,"address__locality":null,"address__region":null,"address__postalCode":null,"address__country":null,"supportingInfrastructure__type":null,"supportingInfrastructure__description":null,"supportingInfrastructure__owner":null,"supportingInfrastructure__spareCapacity":null,"accessPoint":null,"power":null,"transmissionMediumOwner":1,"network_id":1,"r":3,"fill":"#000000","fill-opacity":1,"stroke-opacity":1,"stroke-width":0},"id":36},
{"type":"Feature","geometry":{"type":"Point","coordinates":[125.540742,8.947212]},"properties":{"id":37,"ofds_id":"66c75ffc-8f96-404f-96ea-9b78528cd9c9","name":"Butuan City","phase":null,"status":"operational","address__streetAddress":null,"address__locality":null,"address__region":null,"address__postalCode":null,"address__country":null,"supportingInfrastructure__type":null,"supportingInfrastructure__description":null,"supportingInfrastructure__owner":null,"supportingInfrastructure__spareCapacity":null,"accessPoint":null,"power":null,"transmissionMediumOwner":1,"network_id":1,"r":3,"fill":"#000000","fill-opacity":1,"stroke-opacity":1,"stroke-width":0},"id":37},
{"type":"Feature","geometry":{"type":"Point","coordinates":[125.569451,7.063166]},"properties":{"id":38,"ofds_id":"0c2c6e83-50de-434f-93e5-51509a300eb5","name":"Davao City\n","phase":null,"status":"operational","address__streetAddress":null,"address__locality":null,"address__region":null,"address__postalCode":null,"address__country":null,"supportingInfrastructure__type":null,"supportingInfrastructure__description":null,"supportingInfrastructure__owner":null,"supportingInfrastructure__spareCapacity":null,"accessPoint":null,"power":null,"transmissionMediumOwner":1,"network_id":1,"r":3,"fill":"#000000","fill-opacity":1,"stroke-opacity":1,"stroke-width":0},"id":38},
{"type":"Feature","geometry":{"type":"Point","coordinates":[125.812884,7.443377]},"properties":{"id":39,"ofds_id":"3764afe0-e33a-4a15-acab-83a6ed15f271","name":"Tagum","phase":null,"status":"operational","address__streetAddress":null,"address__locality":null,"address__region":null,"address__postalCode":null,"address__country":null,"supportingInfrastructure__type":null,"supportingInfrastructure__description":null,"supportingInfrastructure__owner":null,"supportingInfrastructure__spareCapacity":null,"accessPoint":null,"power":null,"transmissionMediumOwner":1,"network_id":1,"r":3,"fill":"#000000","fill-opacity":1,"stroke-opacity":1,"stroke-width":0},"id":39},
{"type":"Feature","geometry":{"type":"Point","coordinates":[125.908598,8.643541]},"properties":{"id":40,"ofds_id":"cd09a210-977b-4cd3-a1eb-aa73cb57d70a","name":"Prosperidad","phase":null,"status":"operational","address__streetAddress":null,"address__locality":null,"address__region":null,"address__postalCode":null,"address__country":null,"supportingInfrastructure__type":null,"supportingInfrastructure__description":null,"supportingInfrastructure__owner":null,"supportingInfrastructure__spareCapacity":null,"accessPoint":null,"power":null,"transmissionMediumOwner":1,"network_id":1,"r":3,"fill":"#000000","fill-opacity":1,"stroke-opacity":1,"stroke-width":0},"id":40},
{"type":"Feature","geometry":{"type":"Point","coordinates":[125.356795,6.745318]},"properties":{"id":41,"ofds_id":"9f1e4cbc-acab-4d1a-b866-d6847b4b6be6","name":"Digos","phase":null,"status":"operational","address__streetAddress":null,"address__locality":null,"address__region":null,"address__postalCode":null,"address__country":null,"supportingInfrastructure__type":null,"supportingInfrastructure__description":null,"supportingInfrastructure__owner":null,"supportingInfrastructure__spareCapacity":null,"accessPoint":null,"power":null,"transmissionMediumOwner":1,"network_id":1,"r":3,"fill":"#000000","fill-opacity":1,"stroke-opacity":1,"stroke-width":0},"id":41},
{"type":"Feature","geometry":{"type":"Point","coordinates":[125.170134,6.117073]},"properties":{"id":42,"ofds_id":"023023d9-d0c5-4f9c-8450-387ff12871d0","name":"General Santos City","phase":null,"status":"operational","address__streetAddress":null,"address__locality":null,"address__region":null,"address__postalCode":null,"address__country":null,"supportingInfrastructure__type":null,"supportingInfrastructure__description":null,"supportingInfrastructure__owner":null,"supportingInfrastructure__spareCapacity":null,"accessPoint":null,"power":null,"transmissionMediumOwner":1,"network_id":1,"r":3,"fill":"#000000","fill-opacity":1,"stroke-opacity":1,"stroke-width":0},"id":42},
{"type":"Feature","geometry":{"type":"Point","coordinates":[124.85648,6.508373]},"properties":{"id":43,"ofds_id":"265ccf5e-7ea2-4078-9541-6cc93fa357d4","name":"Koronadal,\nSouth Cotabato","phase":null,"status":"operational","address__streetAddress":null,"address__locality":null,"address__region":null,"address__postalCode":null,"address__country":null,"supportingInfrastructure__type":null,"supportingInfrastructure__description":null,"supportingInfrastructure__owner":null,"supportingInfrastructure__spareCapacity":null,"accessPoint":null,"power":null,"transmissionMediumOwner":1,"network_id":1,"r":3,"fill":"#000000","fill-opacity":1,"stroke-opacity":1,"stroke-width":0},"id":43},
{"type":"Feature","geometry":{"type":"Point","coordinates":[125.005071,7.762935]},"properties":{"id":44,"ofds_id":"9144464b-c565-4a76-ab27-e9554fb956a3","name":"Maramag","phase":null,"status":"operational","address__streetAddress":null,"address__locality":null,"address__region":null,"address__postalCode":null,"address__country":null,"supportingInfrastructure__type":null,"supportingInfrastructure__description":null,"supportingInfrastructure__owner":null,"supportingInfrastructure__spareCapacity":null,"accessPoint":null,"power":null,"transmissionMediumOwner":1,"network_id":1,"r":3,"fill":"#000000","fill-opacity":1,"stroke-opacity":1,"stroke-width":0},"id":44},
{"type":"Feature","geometry":{"type":"Point","coordinates":[125.126987,8.156672]},"properties":{"id":45,"ofds_id":"b4460c9b-a9f1-4900-8daa-e845c9ff0d59","name":"Malaybalay City","phase":null,"status":"operational","address__streetAddress":null,"address__locality":null,"address__region":null,"address__postalCode":null,"address__country":null,"supportingInfrastructure__type":null,"supportingInfrastructure__description":null,"supportingInfrastructure__owner":null,"supportingInfrastructure__spareCapacity":null,"accessPoint":null,"power":null,"transmissionMediumOwner":1,"network_id":1,"r":3,"fill":"#000000","fill-opacity":1,"stroke-opacity":1,"stroke-width":0},"id":45},
{"type":"Feature","geometry":{"type":"Point","coordinates":[124.657387,8.48383]},"properties":{"id":46,"ofds_id":"eae8cbc7-8be6-4374-8db2-13c532fd6971","name":"Cagayan De Oro City\n","phase":null,"status":"operational","address__streetAddress":null,"address__locality":null,"address__region":null,"address__postalCode":null,"address__country":null,"supportingInfrastructure__type":null,"supportingInfrastructure__description":null,"supportingInfrastructure__owner":null,"supportingInfrastructure__spareCapacity":null,"accessPoint":null,"power":null,"transmissionMediumOwner":1,"network_id":1,"r":3,"fill":"#000000","fill-opacity":1,"stroke-opacity":1,"stroke-width":0},"id":46},
{"type":"Feature","geometry":{"type":"Point","coordinates":[123.246531,7.8404]},"properties":{"id":47,"ofds_id":"5e556b96-5d78-4ecb-8afb-6cb2a8aa26b0","name":"Sindangan","phase":null,"status":"operational","address__streetAddress":null,"address__locality":null,"address__region":null,"address__postalCode":null,"address__country":null,"supportingInfrastructure__type":null,"supportingInfrastructure__description":null,"supportingInfrastructure__owner":null,"supportingInfrastructure__spareCapacity":null,"accessPoint":null,"power":null,"transmissionMediumOwner":1,"network_id":1,"r":3,"fill":"#000000","fill-opacity":1,"stroke-opacity":1,"stroke-width":0},"id":47},
{"type":"Feature","geometry":{"type":"Point","coordinates":[122.077091,6.91063]},"properties":{"id":48,"ofds_id":"2c05457c-feef-4ac6-bda5-133e27942dfb","name":"Zamboanga City","phase":null,"status":"operational","address__streetAddress":null,"address__locality":null,"address__region":null,"address__postalCode":null,"address__country":null,"supportingInfrastructure__type":null,"supportingInfrastructure__description":null,"supportingInfrastructure__owner":null,"supportingInfrastructure__spareCapacity":null,"accessPoint":null,"power":null,"transmissionMediumOwner":1,"network_id":1,"r":3,"fill":"#000000","fill-opacity":1,"stroke-opacity":1,"stroke-width":0},"id":48},
{"type":"Feature","geometry":{"type":"Point","coordinates":[122.324022,7.4365]},"properties":{"id":49,"ofds_id":"44f21e36-d919-4e88-bf42-42d995e40b1d","name":"Tungawan","phase":null,"status":"operational","address__streetAddress":null,"address__locality":null,"address__region":null,"address__postalCode":null,"address__country":null,"supportingInfrastructure__type":null,"supportingInfrastructure__description":null,"supportingInfrastructure__owner":null,"supportingInfrastructure__spareCapacity":null,"accessPoint":null,"power":null,"transmissionMediumOwner":1,"network_id":1,"r":3,"fill":"#000000","fill-opacity":1,"stroke-opacity":1,"stroke-width":0},"id":49},
{"type":"Feature","geometry":{"type":"Point","coordinates":[123.433812,7.836344]},"properties":{"id":50,"ofds_id":"e9347b99-59f0-430d-b658-08ac75ca9f10","name":"Pagadian City\n","phase":null,"status":"operational","address__streetAddress":null,"address__locality":null,"address__region":null,"address__postalCode":null,"address__country":null,"supportingInfrastructure__type":null,"supportingInfrastructure__description":null,"supportingInfrastructure__owner":null,"supportingInfrastructure__spareCapacity":null,"accessPoint":null,"power":null,"transmissionMediumOwner":1,"network_id":1,"r":3,"fill":"#000000","fill-opacity":1,"stroke-opacity":1,"stroke-width":0},"id":50},
{"type":"Feature","geometry":{"type":"Point","coordinates":[123.850134,8.14998]},"properties":{"id":51,"ofds_id":"5f312921-f830-4a3a-9224-c468bffb5f93","name":"Ozamiz","phase":null,"status":"operational","address__streetAddress":null,"address__locality":null,"address__region":null,"address__postalCode":null,"address__country":null,"supportingInfrastructure__type":null,"supportingInfrastructure__description":null,"supportingInfrastructure__owner":null,"supportingInfrastructure__spareCapacity":null,"accessPoint":null,"power":null,"transmissionMediumOwner":1,"network_id":1,"r":3,"fill":"#000000","fill-opacity":1,"stroke-opacity":1,"stroke-width":0},"id":51},
{"type":"Feature","geometry":{"type":"Point","coordinates":[122.585401,7.779356]},"properties":{"id":52,"ofds_id":"dce192c5-a87d-4c23-a19c-190647241c13","name":"Ipil\n","phase":null,"status":"operational","address__streetAddress":null,"address__locality":null,"address__region":null,"address__postalCode":null,"address__country":null,"supportingInfrastructure__type":null,"supportingInfrastructure__description":null,"supportingInfrastructure__owner":null,"supportingInfrastructure__spareCapacity":null,"accessPoint":null,"power":null,"transmissionMediumOwner":1,"network_id":1,"r":3,"fill":"#000000","fill-opacity":1,"stroke-opacity":1,"stroke-width":0},"id":52},
{"type":"Feature","geometry":{"type":"Point","coordinates":[123.29395,9.250549]},"properties":{"id":53,"ofds_id":"92d791e2-531d-478b-85ca-1e79c6a34735","name":"Bacong","phase":null,"status":"operational","address__streetAddress":null,"address__locality":null,"address__region":null,"address__postalCode":null,"address__country":null,"supportingInfrastructure__type":null,"supportingInfrastructure__description":null,"supportingInfrastructure__owner":null,"supportingInfrastructure__spareCapacity":null,"accessPoint":null,"power":null,"transmissionMediumOwner":1,"network_id":1,"r":3,"fill":"#000000","fill-opacity":1,"stroke-opacity":1,"stroke-width":0},"id":53},
{"type":"Feature","geometry":{"type":"Point","coordinates":[122.816327,9.995894]},"properties":{"id":54,"ofds_id":"2b17a96c-420d-4a6c-b0fe-554bdadfacc1","name":"Kabankalan City","phase":null,"status":"operational","address__streetAddress":null,"address__locality":null,"address__region":null,"address__postalCode":null,"address__country":null,"supportingInfrastructure__type":null,"supportingInfrastructure__description":null,"supportingInfrastructure__owner":null,"supportingInfrastructure__spareCapacity":null,"accessPoint":null,"power":null,"transmissionMediumOwner":1,"network_id":1,"r":3,"fill":"#000000","fill-opacity":1,"stroke-opacity":1,"stroke-width":0},"id":54},
{"type":"Feature","geometry":{"type":"Point","coordinates":[123.304628,9.301669]},"properties":{"id":55,"ofds_id":"6f6595a0-ddba-41c0-a519-d6903c7c3fd3","name":"Dumaguete City","phase":null,"status":"operational","address__streetAddress":null,"address__locality":null,"address__region":null,"address__postalCode":null,"address__country":null,"supportingInfrastructure__type":null,"supportingInfrastructure__description":null,"supportingInfrastructure__owner":null,"supportingInfrastructure__spareCapacity":null,"accessPoint":null,"power":null,"transmissionMediumOwner":1,"network_id":1,"r":3,"fill":"#000000","fill-opacity":1,"stroke-opacity":1,"stroke-width":0},"id":55},
{"type":"Feature","geometry":{"type":"Point","coordinates":[122.936606,10.641498]},"properties":{"id":56,"ofds_id":"e51347f4-537b-43a9-98a7-5017fc1b7b7c","name":"Bacolod","phase":null,"status":"operational","address__streetAddress":null,"address__locality":null,"address__region":null,"address__postalCode":null,"address__country":null,"supportingInfrastructure__type":null,"supportingInfrastructure__description":null,"supportingInfrastructure__owner":null,"supportingInfrastructure__spareCapacity":null,"accessPoint":null,"power":null,"transmissionMediumOwner":1,"network_id":1,"r":3,"fill":"#000000","fill-opacity":1,"stroke-opacity":1,"stroke-width":0},"id":56},
{"type":"Feature","geometry":{"type":"Point","coordinates":[122.558219,10.730687]},"properties":{"id":57,"ofds_id":"ae666c75-b0ae-4bf0-be03-2ec3f7dd258b","name":"Iloilo City","phase":null,"status":"operational","address__streetAddress":null,"address__locality":null,"address__region":null,"address__postalCode":null,"address__country":null,"supportingInfrastructure__type":null,"supportingInfrastructure__description":null,"supportingInfrastructure__owner":null,"supportingInfrastructure__spareCapacity":null,"accessPoint":null,"power":null,"transmissionMediumOwner":1,"network_id":1,"r":3,"fill":"#000000","fill-opacity":1,"stroke-opacity":1,"stroke-width":0},"id":57},
{"type":"Feature","geometry":{"type":"Point","coordinates":[123.826321,10.256063]},"properties":{"id":58,"ofds_id":"3e59236e-bac3-45de-8996-4a4ae70520b0","name":"Talisay","phase":null,"status":"operational","address__streetAddress":null,"address__locality":null,"address__region":null,"address__postalCode":null,"address__country":null,"supportingInfrastructure__type":null,"supportingInfrastructure__description":null,"supportingInfrastructure__owner":null,"supportingInfrastructure__spareCapacity":null,"accessPoint":null,"power":null,"transmissionMediumOwner":1,"network_id":1,"r":3,"fill":"#000000","fill-opacity":1,"stroke-opacity":1,"stroke-width":0},"id":58},
{"type":"Feature","geometry":{"type":"Point","coordinates":[123.864867,9.653953]},"properties":{"id":59,"ofds_id":"af99f3fc-514f-4f7a-81a7-b9a0cba55697","name":"Tagbilaran City","phase":null,"status":"operational","address__streetAddress":null,"address__locality":null,"address__region":null,"address__postalCode":null,"address__country":null,"supportingInfrastructure__type":null,"supportingInfrastructure__description":null,"supportingInfrastructure__owner":null,"supportingInfrastructure__spareCapacity":null,"accessPoint":null,"power":null,"transmissionMediumOwner":1,"network_id":1,"r":3,"fill":"#000000","fill-opacity":1,"stroke-opacity":1,"stroke-width":0},"id":59},
{"type":"Feature","geometry":{"type":"Point","coordinates":[123.934131,11.08729]},"properties":{"id":60,"ofds_id":"28fc518d-97b9-48da-abf3-59c47252bb21","name":"San Remigio","phase":null,"status":"operational","address__streetAddress":null,"address__locality":null,"address__region":null,"address__postalCode":null,"address__country":null,"supportingInfrastructure__type":null,"supportingInfrastructure__description":null,"supportingInfrastructure__owner":null,"supportingInfrastructure__spareCapacity":null,"accessPoint":null,"power":null,"transmissionMediumOwner":1,"network_id":1,"r":3,"fill":"#000000","fill-opacity":1,"stroke-opacity":1,"stroke-width":0},"id":60},
{"type":"Feature","geometry":{"type":"Point","coordinates":[123.912629,10.320805]},"properties":{"id":61,"ofds_id":"f3c527da-0eb5-4131-9ce0-895a23874fda","name":"Lahug","phase":null,"status":"operational","address__streetAddress":null,"address__locality":null,"address__region":null,"address__postalCode":null,"address__country":null,"supportingInfrastructure__type":null,"supportingInfrastructure__description":null,"supportingInfrastructure__owner":null,"supportingInfrastructure__spareCapacity":null,"accessPoint":null,"power":null,"transmissionMediumOwner":1,"network_id":1,"r":3,"fill":"#000000","fill-opacity":1,"stroke-opacity":1,"stroke-width":0},"id":61},
{"type":"Feature","geometry":{"type":"Point","coordinates":[123.316767,10.955339]},"properties":{"id":62,"ofds_id":"1f3a6110-5902-484b-8ea5-9949e486e2fc","name":"Cadiz City","phase":null,"status":"operational","address__streetAddress":null,"address__locality":null,"address__region":null,"address__postalCode":null,"address__country":null,"supportingInfrastructure__type":null,"supportingInfrastructure__description":null,"supportingInfrastructure__owner":null,"supportingInfrastructure__spareCapacity":null,"accessPoint":null,"power":null,"transmissionMediumOwner":1,"network_id":1,"r":3,"fill":"#000000","fill-opacity":1,"stroke-opacity":1,"stroke-width":0},"id":62},
{"type":"Feature","geometry":{"type":"Point","coordinates":[122.753173,11.580646]},"properties":{"id":63,"ofds_id":"023b0fef-215a-4b88-a532-c17b91e38623","name":"Roxas City","phase":null,"status":"operational","address__streetAddress":null,"address__locality":null,"address__region":null,"address__postalCode":null,"address__country":null,"supportingInfrastructure__type":null,"supportingInfrastructure__description":null,"supportingInfrastructure__owner":null,"supportingInfrastructure__spareCapacity":null,"accessPoint":null,"power":null,"transmissionMediumOwner":1,"network_id":1,"r":3,"fill":"#000000","fill-opacity":1,"stroke-opacity":1,"stroke-width":0},"id":63},
{"type":"Feature","geometry":{"type":"Point","coordinates":[122.369285,11.707108]},"properties":{"id":64,"ofds_id":"923fe292-a2a8-4e3f-82f6-a5655d4e0d0b","name":"Kalibo","phase":null,"status":"operational","address__streetAddress":null,"address__locality":null,"address__region":null,"address__postalCode":null,"address__country":null,"supportingInfrastructure__type":null,"supportingInfrastructure__description":null,"supportingInfrastructure__owner":null,"supportingInfrastructure__spareCapacity":null,"accessPoint":null,"power":null,"transmissionMediumOwner":1,"network_id":1,"r":3,"fill":"#000000","fill-opacity":1,"stroke-opacity":1,"stroke-width":0},"id":64},
{"type":"Feature","geometry":{"type":"Point","coordinates":[121.928771,11.969329]},"properties":{"id":65,"ofds_id":"92cc917b-40b2-4954-85e7-656ce1cc6708","name":"Boracay","phase":null,"status":"operational","address__streetAddress":null,"address__locality":null,"address__region":null,"address__postalCode":null,"address__country":null,"supportingInfrastructure__type":null,"supportingInfrastructure__description":null,"supportingInfrastructure__owner":null,"supportingInfrastructure__spareCapacity":null,"accessPoint":null,"power":null,"transmissionMediumOwner":1,"network_id":1,"r":3,"fill":"#000000","fill-opacity":1,"stroke-opacity":1,"stroke-width":0},"id":65},
{"type":"Feature","geometry":{"type":"Point","coordinates":[124.250864,8.236433]},"properties":{"id":66,"ofds_id":"f68ffe18-ed15-4b62-b0fd-aafd45f4a6ba","name":"Iligan City","phase":null,"status":"operational","address__streetAddress":null,"address__locality":null,"address__region":null,"address__postalCode":null,"address__country":null,"supportingInfrastructure__type":null,"supportingInfrastructure__description":null,"supportingInfrastructure__owner":null,"supportingInfrastructure__spareCapacity":null,"accessPoint":null,"power":null,"transmissionMediumOwner":1,"network_id":1,"r":3,"fill":"#000000","fill-opacity":1,"stroke-opacity":1,"stroke-width":0},"id":66},
{"type":"Feature","geometry":{"type":"Point","coordinates":[121.048415,14.574086]},"properties":{"id":67,"ofds_id":"c9ba5e51-9f1f-41d4-b94c-ed361053c8fa","name":"Mandaluyong City","phase":null,"status":"operational","address__streetAddress":null,"address__locality":null,"address__region":null,"address__postalCode":null,"address__country":null,"supportingInfrastructure__type":null,"supportingInfrastructure__description":null,"supportingInfrastructure__owner":null,"supportingInfrastructure__spareCapacity":null,"accessPoint":null,"power":null,"transmissionMediumOwner":1,"network_id":1,"r":3,"fill":"#000000","fill-opacity":1,"stroke-opacity":1,"stroke-width":0},"id":67},
{"type":"Feature","geometry":{"type":"Point","coordinates":[121.046669,14.628976]},"properties":{"id":68,"ofds_id":"8836c2fb-5399-4345-afe9-72bb1dfe6bb4","name":"Mariana","phase":null,"status":"operational","address__streetAddress":null,"address__locality":null,"address__region":null,"address__postalCode":null,"address__country":null,"supportingInfrastructure__type":null,"supportingInfrastructure__description":null,"supportingInfrastructure__owner":null,"supportingInfrastructure__spareCapacity":null,"accessPoint":null,"power":null,"transmissionMediumOwner":1,"network_id":1,"r":3,"fill":"#000000","fill-opacity":1,"stroke-opacity":1,"stroke-width":0},"id":68},
{"type":"Feature","geometry":{"type":"Point","coordinates":[120.206389,12.00022]},"properties":{"id":69,"ofds_id":"5b82ab2d-a4f8-4f51-a6b0-01029dada9a4","name":"Coron","phase":null,"status":"operational","address__streetAddress":null,"address__locality":null,"address__region":null,"address__postalCode":null,"address__country":null,"supportingInfrastructure__type":null,"supportingInfrastructure__description":null,"supportingInfrastructure__owner":null,"supportingInfrastructure__spareCapacity":null,"accessPoint":null,"power":null,"transmissionMediumOwner":1,"network_id":1,"r":3,"fill":"#000000","fill-opacity":1,"stroke-opacity":1,"stroke-width":0},"id":69},
{"type":"Feature","geometry":{"type":"Point","coordinates":[119.509722,10.832074]},"properties":{"id":70,"ofds_id":"e0709703-3642-4879-8061-bcb7b52650c6","name":"Taytay","phase":null,"status":"operational","address__streetAddress":null,"address__locality":null,"address__region":null,"address__postalCode":null,"address__country":null,"supportingInfrastructure__type":null,"supportingInfrastructure__description":null,"supportingInfrastructure__owner":null,"supportingInfrastructure__spareCapacity":null,"accessPoint":null,"power":null,"transmissionMediumOwner":1,"network_id":1,"r":3,"fill":"#000000","fill-opacity":1,"stroke-opacity":1,"stroke-width":0},"id":70},
{"type":"Feature","geometry":{"type":"Point","coordinates":[119.375656,10.433333]},"properties":{"id":71,"ofds_id":"988cd83b-6808-4ad3-95d9-c6335aeb8e5a","name":"Roxas","phase":null,"status":"operational","address__streetAddress":null,"address__locality":null,"address__region":null,"address__postalCode":null,"address__country":null,"supportingInfrastructure__type":null,"supportingInfrastructure__description":null,"supportingInfrastructure__owner":null,"supportingInfrastructure__spareCapacity":null,"accessPoint":null,"power":null,"transmissionMediumOwner":1,"network_id":1,"r":3,"fill":"#000000","fill-opacity":1,"stroke-opacity":1,"stroke-width":0},"id":71},
{"type":"Feature","geometry":{"type":"Point","coordinates":[118.74436,9.744019]},"properties":{"id":72,"ofds_id":"c43caea4-e78e-471f-9ff5-7cc3883f7cf3","name":"Puerto Princesa City","phase":null,"status":"operational","address__streetAddress":null,"address__locality":null,"address__region":null,"address__postalCode":null,"address__country":null,"supportingInfrastructure__type":null,"supportingInfrastructure__description":null,"supportingInfrastructure__owner":null,"supportingInfrastructure__spareCapacity":null,"accessPoint":null,"power":null,"transmissionMediumOwner":1,"network_id":1,"r":3,"fill":"#000000","fill-opacity":1,"stroke-opacity":1,"stroke-width":0},"id":72},
{"type":"Feature","geometry":{"type":"Point","coordinates":[124.238352,7.210286]},"properties":{"id":73,"ofds_id":"c6a8247d-9e76-4711-87cb-5941d65607e0","name":"Cotabato City\n","phase":null,"status":"operational","address__streetAddress":null,"address__locality":null,"address__region":null,"address__postalCode":null,"address__country":null,"supportingInfrastructure__type":null,"supportingInfrastructure__description":null,"supportingInfrastructure__owner":null,"supportingInfrastructure__spareCapacity":null,"accessPoint":null,"power":null,"transmissionMediumOwner":1,"network_id":1,"r":3,"fill":"#000000","fill-opacity":1,"stroke-opacity":1,"stroke-width":0},"id":73},
{"type":"Feature","geometry":{"type":"Point","coordinates":[124.896374,6.881489]},"properties":{"id":74,"ofds_id":"6523f5ac-ab3f-480b-a9e3-d21e745768b1","name":"M'lang","phase":null,"status":"operational","address__streetAddress":null,"address__locality":null,"address__region":null,"address__postalCode":null,"address__country":null,"supportingInfrastructure__type":null,"supportingInfrastructure__description":null,"supportingInfrastructure__owner":null,"supportingInfrastructure__spareCapacity":null,"accessPoint":null,"power":null,"transmissionMediumOwner":1,"network_id":1,"r":3,"fill":"#000000","fill-opacity":1,"stroke-opacity":1,"stroke-width":0},"id":74},
{"type":"Feature","geometry":{"type":"Point","coordinates":[122.707989,10.77635]},"properties":{"id":75,"ofds_id":"f69b2b6c-2d84-48cb-8a88-281fe0dcf4bc","name":"Dumangas","phase":null,"status":"operational","address__streetAddress":null,"address__locality":null,"address__region":null,"address__postalCode":null,"address__country":null,"supportingInfrastructure__type":null,"supportingInfrastructure__description":null,"supportingInfrastructure__owner":null,"supportingInfrastructure__spareCapacity":null,"accessPoint":null,"power":null,"transmissionMediumOwner":1,"network_id":1,"r":3,"fill":"#000000","fill-opacity":1,"stroke-opacity":1,"stroke-width":0},"id":75},
{"type":"Feature","geometry":{"type":"Point","coordinates":[120.976664,13.522095]},"properties":{"id":76,"ofds_id":"930ba9da-aaeb-4356-85e1-32daf635656f","name":"Sabang beach","phase":null,"status":"operational","address__streetAddress":null,"address__locality":null,"address__region":null,"address__postalCode":null,"address__country":null,"supportingInfrastructure__type":null,"supportingInfrastructure__description":null,"supportingInfrastructure__owner":null,"supportingInfrastructure__spareCapacity":null,"accessPoint":null,"power":null,"transmissionMediumOwner":1,"network_id":1,"r":3,"fill":"#000000","fill-opacity":1,"stroke-opacity":1,"stroke-width":0},"id":76},
{"type":"Feature","geometry":{"type":"Point","coordinates":[120.330149,11.943389]},"properties":{"id":77,"ofds_id":"5d280fe4-97e6-49db-8557-2d6f134358ec","name":"fork","phase":null,"status":"operational","address__streetAddress":null,"address__locality":null,"address__region":null,"address__postalCode":null,"address__country":null,"supportingInfrastructure__type":null,"supportingInfrastructure__description":null,"supportingInfrastructure__owner":null,"supportingInfrastructure__spareCapacity":null,"accessPoint":null,"power":null,"transmissionMediumOwner":1,"network_id":1,"r":3,"fill":"#000000","fill-opacity":1,"stroke-opacity":1,"stroke-width":0},"id":77},
{"type":"Feature","geometry":{"type":"Point","coordinates":[124.22187,7.165185]},"properties":{"id":78,"ofds_id":"5d9c00e2-b8bf-42df-a7fa-ae5bf265984b","name":"default-node","phase":null,"status":"operational","address__streetAddress":null,"address__locality":null,"address__region":null,"address__postalCode":null,"address__country":null,"supportingInfrastructure__type":null,"supportingInfrastructure__description":null,"supportingInfrastructure__owner":null,"supportingInfrastructure__spareCapacity":null,"accessPoint":null,"power":null,"transmissionMediumOwner":1,"network_id":1,"r":3,"fill":"#000000","fill-opacity":1,"stroke-opacity":1,"stroke-width":0},"id":78},
{"type":"Feature","geometry":{"type":"Point","coordinates":[125.011822,7.712662]},"properties":{"id":79,"ofds_id":"b62632a8-cdf3-46a2-a498-1c2b24726946","name":"fork","phase":null,"status":"operational","address__streetAddress":null,"address__locality":null,"address__region":null,"address__postalCode":null,"address__country":null,"supportingInfrastructure__type":null,"supportingInfrastructure__description":null,"supportingInfrastructure__owner":null,"supportingInfrastructure__spareCapacity":null,"accessPoint":null,"power":null,"transmissionMediumOwner":1,"network_id":1,"r":3,"fill":"#000000","fill-opacity":1,"stroke-opacity":1,"stroke-width":0},"id":79},
{"type":"Feature","geometry":{"type":"Point","coordinates":[124.756754,8.498217]},"properties":{"id":80,"ofds_id":"b810d2be-d167-42b2-b59b-54f78b1fc53a","name":"fork","phase":null,"status":"operational","address__streetAddress":null,"address__locality":null,"address__region":null,"address__postalCode":null,"address__country":null,"supportingInfrastructure__type":null,"supportingInfrastructure__description":null,"supportingInfrastructure__owner":null,"supportingInfrastructure__spareCapacity":null,"accessPoint":null,"power":null,"transmissionMediumOwner":1,"network_id":1,"r":3,"fill":"#000000","fill-opacity":1,"stroke-opacity":1,"stroke-width":0},"id":80},
{"type":"Feature","geometry":{"type":"Point","coordinates":[124.79111,10.138372]},"properties":{"id":81,"ofds_id":"b238cef5-6ba3-4520-a7fe-ef18f4865a41","name":"fork","phase":null,"status":"operational","address__streetAddress":null,"address__locality":null,"address__region":null,"address__postalCode":null,"address__country":null,"supportingInfrastructure__type":null,"supportingInfrastructure__description":null,"supportingInfrastructure__owner":null,"supportingInfrastructure__spareCapacity":null,"accessPoint":null,"power":null,"transmissionMediumOwner":1,"network_id":1,"r":3,"fill":"#000000","fill-opacity":1,"stroke-opacity":1,"stroke-width":0},"id":81},
{"type":"Feature","geometry":{"type":"Point","coordinates":[125.639508,7.104581]},"properties":{"id":82,"ofds_id":"674bf3ca-ea94-4fe2-aff3-f21a367eb7df","name":"fork","phase":null,"status":"operational","address__streetAddress":null,"address__locality":null,"address__region":null,"address__postalCode":null,"address__country":null,"supportingInfrastructure__type":null,"supportingInfrastructure__description":null,"supportingInfrastructure__owner":null,"supportingInfrastructure__spareCapacity":null,"accessPoint":null,"power":null,"transmissionMediumOwner":1,"network_id":1,"r":3,"fill":"#000000","fill-opacity":1,"stroke-opacity":1,"stroke-width":0},"id":82}
]}