{
    "type": "FeatureCollection",
    "features": [
        {
            "type": "Feature",
            "geometry": {
                "type": "Point",
                "coordinates": [
                    28.64508553911062,
                    44.18208958898529
                ]
            },
            "properties": {
                "name": "Constanta",
                "id": "8ece1e1b-c5d7-4824-8afe-58ffffd25169",
                "networkProviders": [
                    {
                        "id": "f7e0f5f0-ef80-4c1e-8668-8bae435fe1a8",
                        "name": "directONE"
                    }
                ],
                "status": "operational",
                "transmissionMediumOwner": {
                    "id": "da0ebd8c-a970-4537-a157-0a3b555fc725",
                    "name": "directONE"
                },
                "network": {
                    "id": "fe99cf2d-3872-401e-9937-71dabec23742",
                    "name": "directONE",
                    "links": [
                        {
                            "rel": "describedby",
                            "href": "https://standard.ofds.info/en/0__4__0/network-schema.json"
                        }
                    ]
                },
                "featureType": "node"
            }
        },
        {
            "type": "Feature",
            "geometry": {
                "type": "Point",
                "coordinates": [
                    28.71597289705534,
                    44.89262888938622
                ]
            },
            "properties": {
                "name": "Babadag",
                "id": "ac09a676-715c-428d-bf93-0c96b01529cd",
                "networkProviders": [
                    {
                        "id": "f7e0f5f0-ef80-4c1e-8668-8bae435fe1a8",
                        "name": "directONE"
                    }
                ],
                "status": "operational",
                "transmissionMediumOwner": {
                    "id": "da0ebd8c-a970-4537-a157-0a3b555fc725",
                    "name": "directONE"
                },
                "network": {
                    "id": "fe99cf2d-3872-401e-9937-71dabec23742",
                    "name": "directONE",
                    "links": [
                        {
                            "rel": "describedby",
                            "href": "https://standard.ofds.info/en/0__4__0/network-schema.json"
                        }
                    ]
                },
                "featureType": "node"
            }
        },
        {
            "type": "Feature",
            "geometry": {
                "type": "Point",
                "coordinates": [
                    28.8029528748765,
                    45.17884764585865
                ]
            },
            "properties": {
                "name": "Tulcea",
                "id": "74b1688b-9829-40c1-bf85-2072af804bc6",
                "networkProviders": [
                    {
                        "id": "f7e0f5f0-ef80-4c1e-8668-8bae435fe1a8",
                        "name": "directONE"
                    }
                ],
                "status": "operational",
                "transmissionMediumOwner": {
                    "id": "da0ebd8c-a970-4537-a157-0a3b555fc725",
                    "name": "directONE"
                },
                "network": {
                    "id": "fe99cf2d-3872-401e-9937-71dabec23742",
                    "name": "directONE",
                    "links": [
                        {
                            "rel": "describedby",
                            "href": "https://standard.ofds.info/en/0__4__0/network-schema.json"
                        }
                    ]
                },
                "featureType": "node"
            }
        },
        {
            "type": "Feature",
            "geometry": {
                "type": "Point",
                "coordinates": [
                    28.13324172039058,
                    45.24961976111426
                ]
            },
            "properties": {
                "name": "Măcin",
                "id": "a1b06f12-03e1-45d3-840f-1b613d2264d3",
                "networkProviders": [
                    {
                        "id": "f7e0f5f0-ef80-4c1e-8668-8bae435fe1a8",
                        "name": "directONE"
                    }
                ],
                "status": "operational",
                "transmissionMediumOwner": {
                    "id": "da0ebd8c-a970-4537-a157-0a3b555fc725",
                    "name": "directONE"
                },
                "network": {
                    "id": "fe99cf2d-3872-401e-9937-71dabec23742",
                    "name": "directONE",
                    "links": [
                        {
                            "rel": "describedby",
                            "href": "https://standard.ofds.info/en/0__4__0/network-schema.json"
                        }
                    ]
                },
                "featureType": "node"
            }
        },
        {
            "type": "Feature",
            "geometry": {
                "type": "Point",
                "coordinates": [
                    27.96194057018878,
                    45.27559372218734
                ]
            },
            "properties": {
                "name": "Brăila",
                "id": "f413f59f-fe65-4364-86e2-a4b10d1395d1",
                "networkProviders": [
                    {
                        "id": "f7e0f5f0-ef80-4c1e-8668-8bae435fe1a8",
                        "name": "directONE"
                    }
                ],
                "status": "operational",
                "transmissionMediumOwner": {
                    "id": "da0ebd8c-a970-4537-a157-0a3b555fc725",
                    "name": "directONE"
                },
                "network": {
                    "id": "fe99cf2d-3872-401e-9937-71dabec23742",
                    "name": "directONE",
                    "links": [
                        {
                            "rel": "describedby",
                            "href": "https://standard.ofds.info/en/0__4__0/network-schema.json"
                        }
                    ]
                },
                "featureType": "node"
            }
        },
        {
            "type": "Feature",
            "geometry": {
                "type": "Point",
                "coordinates": [
                    28.02441444581091,
                    45.43430228461575
                ]
            },
            "properties": {
                "name": "Galați",
                "id": "3a53ed2a-11ac-49de-8dcc-85b7f112a2dd",
                "networkProviders": [
                    {
                        "id": "f7e0f5f0-ef80-4c1e-8668-8bae435fe1a8",
                        "name": "directONE"
                    }
                ],
                "status": "operational",
                "transmissionMediumOwner": {
                    "id": "da0ebd8c-a970-4537-a157-0a3b555fc725",
                    "name": "directONE"
                },
                "network": {
                    "id": "fe99cf2d-3872-401e-9937-71dabec23742",
                    "name": "directONE",
                    "links": [
                        {
                            "rel": "describedby",
                            "href": "https://standard.ofds.info/en/0__4__0/network-schema.json"
                        }
                    ]
                },
                "featureType": "node"
            }
        },
        {
            "type": "Feature",
            "geometry": {
                "type": "Point",
                "coordinates": [
                    27.18759022031651,
                    45.69421193692088
                ]
            },
            "properties": {
                "name": "Focșani",
                "id": "76d640f0-4a06-437e-9ddd-5058f8850927",
                "networkProviders": [
                    {
                        "id": "f7e0f5f0-ef80-4c1e-8668-8bae435fe1a8",
                        "name": "directONE"
                    }
                ],
                "status": "operational",
                "transmissionMediumOwner": {
                    "id": "da0ebd8c-a970-4537-a157-0a3b555fc725",
                    "name": "directONE"
                },
                "network": {
                    "id": "fe99cf2d-3872-401e-9937-71dabec23742",
                    "name": "directONE",
                    "links": [
                        {
                            "rel": "describedby",
                            "href": "https://standard.ofds.info/en/0__4__0/network-schema.json"
                        }
                    ]
                },
                "featureType": "node"
            }
        },
        {
            "type": "Feature",
            "geometry": {
                "type": "Point",
                "coordinates": [
                    27.16162903539599,
                    46.12208186869773
                ]
            },
            "properties": {
                "name": "Șișcani",
                "id": "4a0e3acf-697d-4940-a3c9-b673699594d1",
                "networkProviders": [
                    {
                        "id": "f7e0f5f0-ef80-4c1e-8668-8bae435fe1a8",
                        "name": "directONE"
                    }
                ],
                "status": "operational",
                "transmissionMediumOwner": {
                    "id": "da0ebd8c-a970-4537-a157-0a3b555fc725",
                    "name": "directONE"
                },
                "network": {
                    "id": "fe99cf2d-3872-401e-9937-71dabec23742",
                    "name": "directONE",
                    "links": [
                        {
                            "rel": "describedby",
                            "href": "https://standard.ofds.info/en/0__4__0/network-schema.json"
                        }
                    ]
                },
                "featureType": "node"
            }
        },
        {
            "type": "Feature",
            "geometry": {
                "type": "Point",
                "coordinates": [
                    27.210428190019403,
                    45.84575208429883
                ]
            },
            "properties": {
                "name": "Tișița",
                "id": "c92f675f-c3a9-447c-a199-e5f4a41718be",
                "networkProviders": [
                    {
                        "id": "f7e0f5f0-ef80-4c1e-8668-8bae435fe1a8",
                        "name": "directONE"
                    }
                ],
                "status": "operational",
                "transmissionMediumOwner": {
                    "id": "da0ebd8c-a970-4537-a157-0a3b555fc725",
                    "name": "directONE"
                },
                "network": {
                    "id": "fe99cf2d-3872-401e-9937-71dabec23742",
                    "name": "directONE",
                    "links": [
                        {
                            "rel": "describedby",
                            "href": "https://standard.ofds.info/en/0__4__0/network-schema.json"
                        }
                    ]
                },
                "featureType": "node"
            }
        },
        {
            "type": "Feature",
            "geometry": {
                "type": "Point",
                "coordinates": [
                    27.74858951515386,
                    46.61970840185609
                ]
            },
            "properties": {
                "name": "Vasuli",
                "id": "4fc8740a-de1c-41dc-9805-79032dc85292",
                "networkProviders": [
                    {
                        "id": "f7e0f5f0-ef80-4c1e-8668-8bae435fe1a8",
                        "name": "directONE"
                    }
                ],
                "status": "operational",
                "transmissionMediumOwner": {
                    "id": "da0ebd8c-a970-4537-a157-0a3b555fc725",
                    "name": "directONE"
                },
                "network": {
                    "id": "fe99cf2d-3872-401e-9937-71dabec23742",
                    "name": "directONE",
                    "links": [
                        {
                            "rel": "describedby",
                            "href": "https://standard.ofds.info/en/0__4__0/network-schema.json"
                        }
                    ]
                },
                "featureType": "node"
            }
        },
        {
            "type": "Feature",
            "geometry": {
                "type": "Point",
                "coordinates": [
                    26.91322626805077,
                    46.57602532465784
                ]
            },
            "properties": {
                "name": "Bacău",
                "id": "d89fce8a-b9d8-425b-b576-3d056194e625",
                "networkProviders": [
                    {
                        "id": "f7e0f5f0-ef80-4c1e-8668-8bae435fe1a8",
                        "name": "directONE"
                    }
                ],
                "status": "operational",
                "transmissionMediumOwner": {
                    "id": "da0ebd8c-a970-4537-a157-0a3b555fc725",
                    "name": "directONE"
                },
                "network": {
                    "id": "fe99cf2d-3872-401e-9937-71dabec23742",
                    "name": "directONE",
                    "links": [
                        {
                            "rel": "describedby",
                            "href": "https://standard.ofds.info/en/0__4__0/network-schema.json"
                        }
                    ]
                },
                "featureType": "node"
            }
        },
        {
            "type": "Feature",
            "geometry": {
                "type": "Point",
                "coordinates": [
                    26.92659064085972,
                    46.92167314172817
                ]
            },
            "properties": {
                "name": "Roman",
                "id": "b6b9bbeb-5c3e-4c5c-a4b9-c682e842a91e",
                "networkProviders": [
                    {
                        "id": "f7e0f5f0-ef80-4c1e-8668-8bae435fe1a8",
                        "name": "directONE"
                    }
                ],
                "status": "operational",
                "transmissionMediumOwner": {
                    "id": "da0ebd8c-a970-4537-a157-0a3b555fc725",
                    "name": "directONE"
                },
                "network": {
                    "id": "fe99cf2d-3872-401e-9937-71dabec23742",
                    "name": "directONE",
                    "links": [
                        {
                            "rel": "describedby",
                            "href": "https://standard.ofds.info/en/0__4__0/network-schema.json"
                        }
                    ]
                },
                "featureType": "node"
            }
        },
        {
            "type": "Feature",
            "geometry": {
                "type": "Point",
                "coordinates": [
                    27.594692153852957,
                    47.16247042134645
                ]
            },
            "properties": {
                "name": "Iași",
                "id": "61d4acd1-69a8-4ac0-8b39-3ef683cb0d0d",
                "networkProviders": [
                    {
                        "id": "f7e0f5f0-ef80-4c1e-8668-8bae435fe1a8",
                        "name": "directONE"
                    }
                ],
                "status": "operational",
                "transmissionMediumOwner": {
                    "id": "da0ebd8c-a970-4537-a157-0a3b555fc725",
                    "name": "directONE"
                },
                "network": {
                    "id": "fe99cf2d-3872-401e-9937-71dabec23742",
                    "name": "directONE",
                    "links": [
                        {
                            "rel": "describedby",
                            "href": "https://standard.ofds.info/en/0__4__0/network-schema.json"
                        }
                    ]
                },
                "featureType": "node"
            }
        },
        {
            "type": "Feature",
            "geometry": {
                "type": "Point",
                "coordinates": [
                    26.36049735963969,
                    47.205587515504284
                ]
            },
            "properties": {
                "name": "Targu Neamt",
                "id": "56ccd2fc-cca2-4026-af92-eb45d2c1aa9f",
                "networkProviders": [
                    {
                        "id": "f7e0f5f0-ef80-4c1e-8668-8bae435fe1a8",
                        "name": "directONE"
                    }
                ],
                "status": "operational",
                "transmissionMediumOwner": {
                    "id": "da0ebd8c-a970-4537-a157-0a3b555fc725",
                    "name": "directONE"
                },
                "network": {
                    "id": "fe99cf2d-3872-401e-9937-71dabec23742",
                    "name": "directONE",
                    "links": [
                        {
                            "rel": "describedby",
                            "href": "https://standard.ofds.info/en/0__4__0/network-schema.json"
                        }
                    ]
                },
                "featureType": "node"
            }
        },
        {
            "type": "Feature",
            "geometry": {
                "type": "Point",
                "coordinates": [
                    26.66327142374897,
                    47.74431764874062
                ]
            },
            "properties": {
                "name": "Botoşani",
                "id": "bbb6fc85-fc07-4b8d-9c0b-923930d2f170",
                "networkProviders": [
                    {
                        "id": "f7e0f5f0-ef80-4c1e-8668-8bae435fe1a8",
                        "name": "directONE"
                    }
                ],
                "status": "operational",
                "transmissionMediumOwner": {
                    "id": "da0ebd8c-a970-4537-a157-0a3b555fc725",
                    "name": "directONE"
                },
                "network": {
                    "id": "fe99cf2d-3872-401e-9937-71dabec23742",
                    "name": "directONE",
                    "links": [
                        {
                            "rel": "describedby",
                            "href": "https://standard.ofds.info/en/0__4__0/network-schema.json"
                        }
                    ]
                },
                "featureType": "node"
            }
        },
        {
            "type": "Feature",
            "geometry": {
                "type": "Point",
                "coordinates": [
                    26.27171835138916,
                    47.6670182068117
                ]
            },
            "properties": {
                "name": "Suceava",
                "id": "54a1bad5-fd46-4c9b-9445-e36ed8f2250d",
                "networkProviders": [
                    {
                        "id": "f7e0f5f0-ef80-4c1e-8668-8bae435fe1a8",
                        "name": "directONE"
                    }
                ],
                "status": "operational",
                "transmissionMediumOwner": {
                    "id": "da0ebd8c-a970-4537-a157-0a3b555fc725",
                    "name": "directONE"
                },
                "network": {
                    "id": "fe99cf2d-3872-401e-9937-71dabec23742",
                    "name": "directONE",
                    "links": [
                        {
                            "rel": "describedby",
                            "href": "https://standard.ofds.info/en/0__4__0/network-schema.json"
                        }
                    ]
                },
                "featureType": "node"
            }
        },
        {
            "type": "Feature",
            "geometry": {
                "type": "Point",
                "coordinates": [
                    26.37260454627846,
                    46.93743367019447
                ]
            },
            "properties": {
                "name": "Piatra Neamț",
                "id": "9105f53a-8668-4e8a-81fc-1c088191ff2b",
                "networkProviders": [
                    {
                        "id": "f7e0f5f0-ef80-4c1e-8668-8bae435fe1a8",
                        "name": "directONE"
                    }
                ],
                "status": "operational",
                "transmissionMediumOwner": {
                    "id": "da0ebd8c-a970-4537-a157-0a3b555fc725",
                    "name": "directONE"
                },
                "network": {
                    "id": "fe99cf2d-3872-401e-9937-71dabec23742",
                    "name": "directONE",
                    "links": [
                        {
                            "rel": "describedby",
                            "href": "https://standard.ofds.info/en/0__4__0/network-schema.json"
                        }
                    ]
                },
                "featureType": "node"
            }
        },
        {
            "type": "Feature",
            "geometry": {
                "type": "Point",
                "coordinates": [
                    26.49075692631802,
                    46.463761016538825
                ]
            },
            "properties": {
                "name": "Moinești",
                "id": "3c6705c8-9f15-4a5f-9ecf-0b0c69b015ea",
                "networkProviders": [
                    {
                        "id": "f7e0f5f0-ef80-4c1e-8668-8bae435fe1a8",
                        "name": "directONE"
                    }
                ],
                "status": "operational",
                "transmissionMediumOwner": {
                    "id": "da0ebd8c-a970-4537-a157-0a3b555fc725",
                    "name": "directONE"
                },
                "network": {
                    "id": "fe99cf2d-3872-401e-9937-71dabec23742",
                    "name": "directONE",
                    "links": [
                        {
                            "rel": "describedby",
                            "href": "https://standard.ofds.info/en/0__4__0/network-schema.json"
                        }
                    ]
                },
                "featureType": "node"
            }
        },
        {
            "type": "Feature",
            "geometry": {
                "type": "Point",
                "coordinates": [
                    25.56880411688721,
                    47.52317685016367
                ]
            },
            "properties": {
                "name": "Câmpulung Moldovenesc",
                "id": "faa66a3f-61a9-4539-8c12-24224b867e54",
                "networkProviders": [
                    {
                        "id": "f7e0f5f0-ef80-4c1e-8668-8bae435fe1a8",
                        "name": "directONE"
                    }
                ],
                "status": "operational",
                "transmissionMediumOwner": {
                    "id": "da0ebd8c-a970-4537-a157-0a3b555fc725",
                    "name": "directONE"
                },
                "network": {
                    "id": "fe99cf2d-3872-401e-9937-71dabec23742",
                    "name": "directONE",
                    "links": [
                        {
                            "rel": "describedby",
                            "href": "https://standard.ofds.info/en/0__4__0/network-schema.json"
                        }
                    ]
                },
                "featureType": "node"
            }
        },
        {
            "type": "Feature",
            "geometry": {
                "type": "Point",
                "coordinates": [
                    25.36383924534311,
                    47.3511923175522
                ]
            },
            "properties": {
                "name": "Vastra Dornei",
                "id": "b654f16e-0038-428c-877b-85108577939b",
                "networkProviders": [
                    {
                        "id": "f7e0f5f0-ef80-4c1e-8668-8bae435fe1a8",
                        "name": "directONE"
                    }
                ],
                "status": "operational",
                "transmissionMediumOwner": {
                    "id": "da0ebd8c-a970-4537-a157-0a3b555fc725",
                    "name": "directONE"
                },
                "network": {
                    "id": "fe99cf2d-3872-401e-9937-71dabec23742",
                    "name": "directONE",
                    "links": [
                        {
                            "rel": "describedby",
                            "href": "https://standard.ofds.info/en/0__4__0/network-schema.json"
                        }
                    ]
                },
                "featureType": "node"
            }
        },
        {
            "type": "Feature",
            "geometry": {
                "type": "Point",
                "coordinates": [
                    24.48874268097468,
                    47.13893842674011
                ]
            },
            "properties": {
                "name": "Bistrița",
                "id": "a2e0464d-1954-46cb-8859-6432a1255e9d",
                "networkProviders": [
                    {
                        "id": "f7e0f5f0-ef80-4c1e-8668-8bae435fe1a8",
                        "name": "directONE"
                    }
                ],
                "status": "operational",
                "transmissionMediumOwner": {
                    "id": "da0ebd8c-a970-4537-a157-0a3b555fc725",
                    "name": "directONE"
                },
                "network": {
                    "id": "fe99cf2d-3872-401e-9937-71dabec23742",
                    "name": "directONE",
                    "links": [
                        {
                            "rel": "describedby",
                            "href": "https://standard.ofds.info/en/0__4__0/network-schema.json"
                        }
                    ]
                },
                "featureType": "node"
            }
        },
        {
            "type": "Feature",
            "geometry": {
                "type": "Point",
                "coordinates": [
                    23.89890736394171,
                    47.17850026528897
                ]
            },
            "properties": {
                "name": "Dej",
                "id": "2e07deaf-16df-4d99-b393-375cef80fec0",
                "networkProviders": [
                    {
                        "id": "f7e0f5f0-ef80-4c1e-8668-8bae435fe1a8",
                        "name": "directONE"
                    }
                ],
                "status": "operational",
                "transmissionMediumOwner": {
                    "id": "da0ebd8c-a970-4537-a157-0a3b555fc725",
                    "name": "directONE"
                },
                "network": {
                    "id": "fe99cf2d-3872-401e-9937-71dabec23742",
                    "name": "directONE",
                    "links": [
                        {
                            "rel": "describedby",
                            "href": "https://standard.ofds.info/en/0__4__0/network-schema.json"
                        }
                    ]
                },
                "featureType": "node"
            }
        },
        {
            "type": "Feature",
            "geometry": {
                "type": "Point",
                "coordinates": [
                    23.58382070795144,
                    47.66178102155552
                ]
            },
            "properties": {
                "name": "Baia Mare",
                "id": "0b6aad39-1fc0-4269-8f71-e767fef19b1b",
                "networkProviders": [
                    {
                        "id": "f7e0f5f0-ef80-4c1e-8668-8bae435fe1a8",
                        "name": "directONE"
                    }
                ],
                "status": "operational",
                "transmissionMediumOwner": {
                    "id": "da0ebd8c-a970-4537-a157-0a3b555fc725",
                    "name": "directONE"
                },
                "network": {
                    "id": "fe99cf2d-3872-401e-9937-71dabec23742",
                    "name": "directONE",
                    "links": [
                        {
                            "rel": "describedby",
                            "href": "https://standard.ofds.info/en/0__4__0/network-schema.json"
                        }
                    ]
                },
                "featureType": "node"
            }
        },
        {
            "type": "Feature",
            "geometry": {
                "type": "Point",
                "coordinates": [
                    23.62522873968449,
                    46.791089389046
                ]
            },
            "properties": {
                "name": "Cluj-Napoca",
                "id": "b8e7724c-6dd0-482d-a820-ee2bad746033",
                "networkProviders": [
                    {
                        "id": "f7e0f5f0-ef80-4c1e-8668-8bae435fe1a8",
                        "name": "directONE"
                    }
                ],
                "status": "operational",
                "transmissionMediumOwner": {
                    "id": "da0ebd8c-a970-4537-a157-0a3b555fc725",
                    "name": "directONE"
                },
                "network": {
                    "id": "fe99cf2d-3872-401e-9937-71dabec23742",
                    "name": "directONE",
                    "links": [
                        {
                            "rel": "describedby",
                            "href": "https://standard.ofds.info/en/0__4__0/network-schema.json"
                        }
                    ]
                },
                "featureType": "node"
            }
        },
        {
            "type": "Feature",
            "geometry": {
                "type": "Point",
                "coordinates": [
                    22.9031328502249,
                    47.81415640439351
                ]
            },
            "properties": {
                "name": "Satu Mare",
                "id": "6c90328a-650d-4c99-a48b-a97d1a231868",
                "networkProviders": [
                    {
                        "id": "f7e0f5f0-ef80-4c1e-8668-8bae435fe1a8",
                        "name": "directONE"
                    }
                ],
                "status": "operational",
                "transmissionMediumOwner": {
                    "id": "da0ebd8c-a970-4537-a157-0a3b555fc725",
                    "name": "directONE"
                },
                "network": {
                    "id": "fe99cf2d-3872-401e-9937-71dabec23742",
                    "name": "directONE",
                    "links": [
                        {
                            "rel": "describedby",
                            "href": "https://standard.ofds.info/en/0__4__0/network-schema.json"
                        }
                    ]
                },
                "featureType": "node"
            }
        },
        {
            "type": "Feature",
            "geometry": {
                "type": "Point",
                "coordinates": [
                    22.33191410967834,
                    47.34371962578159
                ]
            },
            "properties": {
                "name": "Marghita",
                "id": "40b16d8e-a4be-45af-9aed-3f048557f5a2",
                "networkProviders": [
                    {
                        "id": "f7e0f5f0-ef80-4c1e-8668-8bae435fe1a8",
                        "name": "directONE"
                    }
                ],
                "status": "operational",
                "transmissionMediumOwner": {
                    "id": "da0ebd8c-a970-4537-a157-0a3b555fc725",
                    "name": "directONE"
                },
                "network": {
                    "id": "fe99cf2d-3872-401e-9937-71dabec23742",
                    "name": "directONE",
                    "links": [
                        {
                            "rel": "describedby",
                            "href": "https://standard.ofds.info/en/0__4__0/network-schema.json"
                        }
                    ]
                },
                "featureType": "node"
            }
        },
        {
            "type": "Feature",
            "geometry": {
                "type": "Point",
                "coordinates": [
                    21.933580479124103,
                    47.048568269980265
                ]
            },
            "properties": {
                "name": "Oradea",
                "id": "8d6662a2-245b-4dde-b9c1-5e9045f39e73",
                "networkProviders": [
                    {
                        "id": "f7e0f5f0-ef80-4c1e-8668-8bae435fe1a8",
                        "name": "directONE"
                    }
                ],
                "status": "operational",
                "transmissionMediumOwner": {
                    "id": "da0ebd8c-a970-4537-a157-0a3b555fc725",
                    "name": "directONE"
                },
                "network": {
                    "id": "fe99cf2d-3872-401e-9937-71dabec23742",
                    "name": "directONE",
                    "links": [
                        {
                            "rel": "describedby",
                            "href": "https://standard.ofds.info/en/0__4__0/network-schema.json"
                        }
                    ]
                },
                "featureType": "node"
            }
        },
        {
            "type": "Feature",
            "geometry": {
                "type": "Point",
                "coordinates": [
                    25.80386939326362,
                    46.36567653030807
                ]
            },
            "properties": {
                "name": "Miercurea Ciuc",
                "id": "b98d78f3-6f73-4d0b-8255-681f3138fc85",
                "networkProviders": [
                    {
                        "id": "f7e0f5f0-ef80-4c1e-8668-8bae435fe1a8",
                        "name": "directONE"
                    }
                ],
                "status": "operational",
                "transmissionMediumOwner": {
                    "id": "da0ebd8c-a970-4537-a157-0a3b555fc725",
                    "name": "directONE"
                },
                "network": {
                    "id": "fe99cf2d-3872-401e-9937-71dabec23742",
                    "name": "directONE",
                    "links": [
                        {
                            "rel": "describedby",
                            "href": "https://standard.ofds.info/en/0__4__0/network-schema.json"
                        }
                    ]
                },
                "featureType": "node"
            }
        },
        {
            "type": "Feature",
            "geometry": {
                "type": "Point",
                "coordinates": [
                    25.80480597032249,
                    45.86144168165068
                ]
            },
            "properties": {
                "name": "Sfântu Gheorghe",
                "id": "ecff9168-3805-43e2-b122-7abdc4e80e7b",
                "networkProviders": [
                    {
                        "id": "f7e0f5f0-ef80-4c1e-8668-8bae435fe1a8",
                        "name": "directONE"
                    }
                ],
                "status": "operational",
                "transmissionMediumOwner": {
                    "id": "da0ebd8c-a970-4537-a157-0a3b555fc725",
                    "name": "directONE"
                },
                "network": {
                    "id": "fe99cf2d-3872-401e-9937-71dabec23742",
                    "name": "directONE",
                    "links": [
                        {
                            "rel": "describedby",
                            "href": "https://standard.ofds.info/en/0__4__0/network-schema.json"
                        }
                    ]
                },
                "featureType": "node"
            }
        },
        {
            "type": "Feature",
            "geometry": {
                "type": "Point",
                "coordinates": [
                    25.608092756101986,
                    45.65278856609144
                ]
            },
            "properties": {
                "name": "Brașov",
                "id": "4f01a17d-4ea5-4b78-87dc-79a562c5406a",
                "networkProviders": [
                    {
                        "id": "f7e0f5f0-ef80-4c1e-8668-8bae435fe1a8",
                        "name": "directONE"
                    }
                ],
                "status": "operational",
                "transmissionMediumOwner": {
                    "id": "da0ebd8c-a970-4537-a157-0a3b555fc725",
                    "name": "directONE"
                },
                "network": {
                    "id": "fe99cf2d-3872-401e-9937-71dabec23742",
                    "name": "directONE",
                    "links": [
                        {
                            "rel": "describedby",
                            "href": "https://standard.ofds.info/en/0__4__0/network-schema.json"
                        }
                    ]
                },
                "featureType": "node"
            }
        },
        {
            "type": "Feature",
            "geometry": {
                "type": "Point",
                "coordinates": [
                    24.96846252284788,
                    45.86171699044968
                ]
            },
            "properties": {
                "name": "Făgăraș",
                "id": "f1981c8d-90b5-4fcd-9410-c1d5b4570454",
                "networkProviders": [
                    {
                        "id": "f7e0f5f0-ef80-4c1e-8668-8bae435fe1a8",
                        "name": "directONE"
                    }
                ],
                "status": "operational",
                "transmissionMediumOwner": {
                    "id": "da0ebd8c-a970-4537-a157-0a3b555fc725",
                    "name": "directONE"
                },
                "network": {
                    "id": "fe99cf2d-3872-401e-9937-71dabec23742",
                    "name": "directONE",
                    "links": [
                        {
                            "rel": "describedby",
                            "href": "https://standard.ofds.info/en/0__4__0/network-schema.json"
                        }
                    ]
                },
                "featureType": "node"
            }
        },
        {
            "type": "Feature",
            "geometry": {
                "type": "Point",
                "coordinates": [
                    24.13438586856746,
                    45.79932978337845
                ]
            },
            "properties": {
                "name": "Sibiu",
                "id": "ae54b77e-bc23-4d9a-8958-52eec7e8fc8d",
                "networkProviders": [
                    {
                        "id": "f7e0f5f0-ef80-4c1e-8668-8bae435fe1a8",
                        "name": "directONE"
                    }
                ],
                "status": "operational",
                "transmissionMediumOwner": {
                    "id": "da0ebd8c-a970-4537-a157-0a3b555fc725",
                    "name": "directONE"
                },
                "network": {
                    "id": "fe99cf2d-3872-401e-9937-71dabec23742",
                    "name": "directONE",
                    "links": [
                        {
                            "rel": "describedby",
                            "href": "https://standard.ofds.info/en/0__4__0/network-schema.json"
                        }
                    ]
                },
                "featureType": "node"
            }
        },
        {
            "type": "Feature",
            "geometry": {
                "type": "Point",
                "coordinates": [
                    24.23858080838676,
                    45.69639487329324
                ]
            },
            "properties": {
                "name": "Sibiu South Branch",
                "id": "5e518e76-e3ac-4b40-a955-9f353a951de1",
                "networkProviders": [
                    {
                        "id": "f7e0f5f0-ef80-4c1e-8668-8bae435fe1a8",
                        "name": "directONE"
                    }
                ],
                "status": "operational",
                "transmissionMediumOwner": {
                    "id": "da0ebd8c-a970-4537-a157-0a3b555fc725",
                    "name": "directONE"
                },
                "network": {
                    "id": "fe99cf2d-3872-401e-9937-71dabec23742",
                    "name": "directONE",
                    "links": [
                        {
                            "rel": "describedby",
                            "href": "https://standard.ofds.info/en/0__4__0/network-schema.json"
                        }
                    ]
                },
                "featureType": "node"
            }
        },
        {
            "type": "Feature",
            "geometry": {
                "type": "Point",
                "coordinates": [
                    24.36508762237545,
                    45.10174680430846
                ]
            },
            "properties": {
                "name": "Râmnicu Vâlcea",
                "id": "f6120e13-7346-416b-9fe3-8586fb8d1b79",
                "networkProviders": [
                    {
                        "id": "f7e0f5f0-ef80-4c1e-8668-8bae435fe1a8",
                        "name": "directONE"
                    }
                ],
                "status": "operational",
                "transmissionMediumOwner": {
                    "id": "da0ebd8c-a970-4537-a157-0a3b555fc725",
                    "name": "directONE"
                },
                "network": {
                    "id": "fe99cf2d-3872-401e-9937-71dabec23742",
                    "name": "directONE",
                    "links": [
                        {
                            "rel": "describedby",
                            "href": "https://standard.ofds.info/en/0__4__0/network-schema.json"
                        }
                    ]
                },
                "featureType": "node"
            }
        },
        {
            "type": "Feature",
            "geometry": {
                "type": "Point",
                "coordinates": [
                    24.34514219613809,
                    45.07124234335762
                ]
            },
            "properties": {
                "name": "Râmnicu Vâlcea South Branch",
                "id": "9fac6cdc-f0be-4499-833b-86fd95a75983",
                "networkProviders": [
                    {
                        "id": "f7e0f5f0-ef80-4c1e-8668-8bae435fe1a8",
                        "name": "directONE"
                    }
                ],
                "status": "operational",
                "transmissionMediumOwner": {
                    "id": "da0ebd8c-a970-4537-a157-0a3b555fc725",
                    "name": "directONE"
                },
                "network": {
                    "id": "fe99cf2d-3872-401e-9937-71dabec23742",
                    "name": "directONE",
                    "links": [
                        {
                            "rel": "describedby",
                            "href": "https://standard.ofds.info/en/0__4__0/network-schema.json"
                        }
                    ]
                },
                "featureType": "node"
            }
        },
        {
            "type": "Feature",
            "geometry": {
                "type": "Point",
                "coordinates": [
                    24.88221832792762,
                    44.86828815335562
                ]
            },
            "properties": {
                "name": "Pitești",
                "id": "af49578c-96b5-425e-8e12-b9a92c1fe1ba",
                "networkProviders": [
                    {
                        "id": "f7e0f5f0-ef80-4c1e-8668-8bae435fe1a8",
                        "name": "directONE"
                    }
                ],
                "status": "operational",
                "transmissionMediumOwner": {
                    "id": "da0ebd8c-a970-4537-a157-0a3b555fc725",
                    "name": "directONE"
                },
                "network": {
                    "id": "fe99cf2d-3872-401e-9937-71dabec23742",
                    "name": "directONE",
                    "links": [
                        {
                            "rel": "describedby",
                            "href": "https://standard.ofds.info/en/0__4__0/network-schema.json"
                        }
                    ]
                },
                "featureType": "node"
            }
        },
        {
            "type": "Feature",
            "geometry": {
                "type": "Point",
                "coordinates": [
                    24.2907986722412,
                    45.02751908927297
                ]
            },
            "properties": {
                "name": "Stupărei",
                "id": "f073e95a-4166-4095-83a6-71450fa0a7af",
                "networkProviders": [
                    {
                        "id": "f7e0f5f0-ef80-4c1e-8668-8bae435fe1a8",
                        "name": "directONE"
                    }
                ],
                "status": "operational",
                "transmissionMediumOwner": {
                    "id": "da0ebd8c-a970-4537-a157-0a3b555fc725",
                    "name": "directONE"
                },
                "network": {
                    "id": "fe99cf2d-3872-401e-9937-71dabec23742",
                    "name": "directONE",
                    "links": [
                        {
                            "rel": "describedby",
                            "href": "https://standard.ofds.info/en/0__4__0/network-schema.json"
                        }
                    ]
                },
                "featureType": "node"
            }
        },
        {
            "type": "Feature",
            "geometry": {
                "type": "Point",
                "coordinates": [
                    24.261306614733915,
                    44.66088121899643
                ]
            },
            "properties": {
                "name": "Drăgășani",
                "id": "d689c0d6-363b-4149-9528-95bc9b5aed47",
                "networkProviders": [
                    {
                        "id": "f7e0f5f0-ef80-4c1e-8668-8bae435fe1a8",
                        "name": "directONE"
                    }
                ],
                "status": "operational",
                "transmissionMediumOwner": {
                    "id": "da0ebd8c-a970-4537-a157-0a3b555fc725",
                    "name": "directONE"
                },
                "network": {
                    "id": "fe99cf2d-3872-401e-9937-71dabec23742",
                    "name": "directONE",
                    "links": [
                        {
                            "rel": "describedby",
                            "href": "https://standard.ofds.info/en/0__4__0/network-schema.json"
                        }
                    ]
                },
                "featureType": "node"
            }
        },
        {
            "type": "Feature",
            "geometry": {
                "type": "Point",
                "coordinates": [
                    23.80134607693911,
                    44.32059597091819
                ]
            },
            "properties": {
                "name": "Craiova",
                "id": "f1c54f6e-6176-4528-a2cf-97e761de2a0d",
                "networkProviders": [
                    {
                        "id": "f7e0f5f0-ef80-4c1e-8668-8bae435fe1a8",
                        "name": "directONE"
                    }
                ],
                "status": "operational",
                "transmissionMediumOwner": {
                    "id": "da0ebd8c-a970-4537-a157-0a3b555fc725",
                    "name": "directONE"
                },
                "network": {
                    "id": "fe99cf2d-3872-401e-9937-71dabec23742",
                    "name": "directONE",
                    "links": [
                        {
                            "rel": "describedby",
                            "href": "https://standard.ofds.info/en/0__4__0/network-schema.json"
                        }
                    ]
                },
                "featureType": "node"
            }
        },
        {
            "type": "Feature",
            "geometry": {
                "type": "Point",
                "coordinates": [
                    23.271913664626535,
                    45.041341640931165
                ]
            },
            "properties": {
                "name": "Târgu Jiu",
                "id": "a5e9bec6-434d-4e70-99c2-ba0bf915fd95",
                "networkProviders": [
                    {
                        "id": "f7e0f5f0-ef80-4c1e-8668-8bae435fe1a8",
                        "name": "directONE"
                    }
                ],
                "status": "operational",
                "transmissionMediumOwner": {
                    "id": "da0ebd8c-a970-4537-a157-0a3b555fc725",
                    "name": "directONE"
                },
                "network": {
                    "id": "fe99cf2d-3872-401e-9937-71dabec23742",
                    "name": "directONE",
                    "links": [
                        {
                            "rel": "describedby",
                            "href": "https://standard.ofds.info/en/0__4__0/network-schema.json"
                        }
                    ]
                },
                "featureType": "node"
            }
        },
        {
            "type": "Feature",
            "geometry": {
                "type": "Point",
                "coordinates": [
                    23.514219916217343,
                    44.95451732243426
                ]
            },
            "properties": {
                "name": "Târgu Cărbunești",
                "id": "e2487b4f-3c5e-4e7d-abaf-c89feaa3bced",
                "networkProviders": [
                    {
                        "id": "f7e0f5f0-ef80-4c1e-8668-8bae435fe1a8",
                        "name": "directONE"
                    }
                ],
                "status": "operational",
                "transmissionMediumOwner": {
                    "id": "da0ebd8c-a970-4537-a157-0a3b555fc725",
                    "name": "directONE"
                },
                "network": {
                    "id": "fe99cf2d-3872-401e-9937-71dabec23742",
                    "name": "directONE",
                    "links": [
                        {
                            "rel": "describedby",
                            "href": "https://standard.ofds.info/en/0__4__0/network-schema.json"
                        }
                    ]
                },
                "featureType": "node"
            }
        },
        {
            "type": "Feature",
            "geometry": {
                "type": "Point",
                "coordinates": [
                    23.580489775754273,
                    46.075513201558365
                ]
            },
            "properties": {
                "name": "Alba Ilulia",
                "id": "b70ff801-7763-453a-827f-843d31939a4c",
                "networkProviders": [
                    {
                        "id": "f7e0f5f0-ef80-4c1e-8668-8bae435fe1a8",
                        "name": "directONE"
                    }
                ],
                "status": "operational",
                "transmissionMediumOwner": {
                    "id": "da0ebd8c-a970-4537-a157-0a3b555fc725",
                    "name": "directONE"
                },
                "network": {
                    "id": "fe99cf2d-3872-401e-9937-71dabec23742",
                    "name": "directONE",
                    "links": [
                        {
                            "rel": "describedby",
                            "href": "https://standard.ofds.info/en/0__4__0/network-schema.json"
                        }
                    ]
                },
                "featureType": "node"
            }
        },
        {
            "type": "Feature",
            "geometry": {
                "type": "Point",
                "coordinates": [
                    23.08439930116952,
                    46.36558038199193
                ]
            },
            "properties": {
                "name": "Câmpeni",
                "id": "423e6e7d-0774-480b-94d0-3c7f474d95a1",
                "networkProviders": [
                    {
                        "id": "f7e0f5f0-ef80-4c1e-8668-8bae435fe1a8",
                        "name": "directONE"
                    }
                ],
                "status": "operational",
                "transmissionMediumOwner": {
                    "id": "da0ebd8c-a970-4537-a157-0a3b555fc725",
                    "name": "directONE"
                },
                "network": {
                    "id": "fe99cf2d-3872-401e-9937-71dabec23742",
                    "name": "directONE",
                    "links": [
                        {
                            "rel": "describedby",
                            "href": "https://standard.ofds.info/en/0__4__0/network-schema.json"
                        }
                    ]
                },
                "featureType": "node"
            }
        },
        {
            "type": "Feature",
            "geometry": {
                "type": "Point",
                "coordinates": [
                    22.87634661378718,
                    45.9129272971303
                ]
            },
            "properties": {
                "name": "Deva",
                "id": "81d92ac8-b6c6-4f8e-9523-647e3a6b4c01",
                "networkProviders": [
                    {
                        "id": "f7e0f5f0-ef80-4c1e-8668-8bae435fe1a8",
                        "name": "directONE"
                    }
                ],
                "status": "operational",
                "transmissionMediumOwner": {
                    "id": "da0ebd8c-a970-4537-a157-0a3b555fc725",
                    "name": "directONE"
                },
                "network": {
                    "id": "fe99cf2d-3872-401e-9937-71dabec23742",
                    "name": "directONE",
                    "links": [
                        {
                            "rel": "describedby",
                            "href": "https://standard.ofds.info/en/0__4__0/network-schema.json"
                        }
                    ]
                },
                "featureType": "node"
            }
        },
        {
            "type": "Feature",
            "geometry": {
                "type": "Point",
                "coordinates": [
                    21.6852988412262,
                    46.11391317395967
                ]
            },
            "properties": {
                "name": "Lipova",
                "id": "54b4bba6-5be6-4897-9ada-84f3160877db",
                "networkProviders": [
                    {
                        "id": "f7e0f5f0-ef80-4c1e-8668-8bae435fe1a8",
                        "name": "directONE"
                    }
                ],
                "status": "operational",
                "transmissionMediumOwner": {
                    "id": "da0ebd8c-a970-4537-a157-0a3b555fc725",
                    "name": "directONE"
                },
                "network": {
                    "id": "fe99cf2d-3872-401e-9937-71dabec23742",
                    "name": "directONE",
                    "links": [
                        {
                            "rel": "describedby",
                            "href": "https://standard.ofds.info/en/0__4__0/network-schema.json"
                        }
                    ]
                },
                "featureType": "node"
            }
        },
        {
            "type": "Feature",
            "geometry": {
                "type": "Point",
                "coordinates": [
                    21.32328286442689,
                    46.1796596453265
                ]
            },
            "properties": {
                "name": "Arad",
                "id": "97410af8-1e14-46a5-b0cd-e228d0eade3c",
                "networkProviders": [
                    {
                        "id": "f7e0f5f0-ef80-4c1e-8668-8bae435fe1a8",
                        "name": "directONE"
                    }
                ],
                "status": "operational",
                "transmissionMediumOwner": {
                    "id": "da0ebd8c-a970-4537-a157-0a3b555fc725",
                    "name": "directONE"
                },
                "network": {
                    "id": "fe99cf2d-3872-401e-9937-71dabec23742",
                    "name": "directONE",
                    "links": [
                        {
                            "rel": "describedby",
                            "href": "https://standard.ofds.info/en/0__4__0/network-schema.json"
                        }
                    ]
                },
                "featureType": "node"
            }
        },
        {
            "type": "Feature",
            "geometry": {
                "type": "Point",
                "coordinates": [
                    20.747212583757282,
                    46.17691280240974
                ]
            },
            "properties": {
                "name": "Nădlac",
                "id": "e3325e86-d408-41ee-86d1-6ab7aa066504",
                "networkProviders": [
                    {
                        "id": "f7e0f5f0-ef80-4c1e-8668-8bae435fe1a8",
                        "name": "directONE"
                    }
                ],
                "status": "operational",
                "transmissionMediumOwner": {
                    "id": "da0ebd8c-a970-4537-a157-0a3b555fc725",
                    "name": "directONE"
                },
                "network": {
                    "id": "fe99cf2d-3872-401e-9937-71dabec23742",
                    "name": "directONE",
                    "links": [
                        {
                            "rel": "describedby",
                            "href": "https://standard.ofds.info/en/0__4__0/network-schema.json"
                        }
                    ]
                },
                "featureType": "node"
            }
        },
        {
            "type": "Feature",
            "geometry": {
                "type": "Point",
                "coordinates": [
                    20.6321545972079,
                    46.07290119427418
                ]
            },
            "properties": {
                "name": "Sânnicolau Mare",
                "id": "7c6aa35f-6aa3-43a5-833c-3aa543234a5a",
                "networkProviders": [
                    {
                        "id": "f7e0f5f0-ef80-4c1e-8668-8bae435fe1a8",
                        "name": "directONE"
                    }
                ],
                "status": "operational",
                "transmissionMediumOwner": {
                    "id": "da0ebd8c-a970-4537-a157-0a3b555fc725",
                    "name": "directONE"
                },
                "network": {
                    "id": "fe99cf2d-3872-401e-9937-71dabec23742",
                    "name": "directONE",
                    "links": [
                        {
                            "rel": "describedby",
                            "href": "https://standard.ofds.info/en/0__4__0/network-schema.json"
                        }
                    ]
                },
                "featureType": "node"
            }
        },
        {
            "type": "Feature",
            "geometry": {
                "type": "Point",
                "coordinates": [
                    21.21408786508004,
                    45.80040851625826
                ]
            },
            "properties": {
                "name": "Timișoara",
                "id": "c4d46179-57cb-4a47-b9a5-e8fb1820e890",
                "networkProviders": [
                    {
                        "id": "f7e0f5f0-ef80-4c1e-8668-8bae435fe1a8",
                        "name": "directONE"
                    }
                ],
                "status": "operational",
                "transmissionMediumOwner": {
                    "id": "da0ebd8c-a970-4537-a157-0a3b555fc725",
                    "name": "directONE"
                },
                "network": {
                    "id": "fe99cf2d-3872-401e-9937-71dabec23742",
                    "name": "directONE",
                    "links": [
                        {
                            "rel": "describedby",
                            "href": "https://standard.ofds.info/en/0__4__0/network-schema.json"
                        }
                    ]
                },
                "featureType": "node"
            }
        },
        {
            "type": "Feature",
            "geometry": {
                "type": "Point",
                "coordinates": [
                    25.70980572873912,
                    45.72706238516545
                ]
            },
            "properties": {
                "name": "Cheia",
                "id": "4ca18330-0a3e-4505-99a8-ae1f61a03f3f",
                "networkProviders": [
                    {
                        "id": "f7e0f5f0-ef80-4c1e-8668-8bae435fe1a8",
                        "name": "directONE"
                    }
                ],
                "status": "operational",
                "transmissionMediumOwner": {
                    "id": "da0ebd8c-a970-4537-a157-0a3b555fc725",
                    "name": "directONE"
                },
                "network": {
                    "id": "fe99cf2d-3872-401e-9937-71dabec23742",
                    "name": "directONE",
                    "links": [
                        {
                            "rel": "describedby",
                            "href": "https://standard.ofds.info/en/0__4__0/network-schema.json"
                        }
                    ]
                },
                "featureType": "node"
            }
        },
        {
            "type": "Feature",
            "geometry": {
                "type": "Point",
                "coordinates": [
                    26.01261374361072,
                    44.9177552412666
                ]
            },
            "properties": {
                "name": "Ploiești",
                "id": "bfb9e727-b3e5-4f60-8773-a2fd4728fe13",
                "networkProviders": [
                    {
                        "id": "f7e0f5f0-ef80-4c1e-8668-8bae435fe1a8",
                        "name": "directONE"
                    }
                ],
                "status": "operational",
                "transmissionMediumOwner": {
                    "id": "da0ebd8c-a970-4537-a157-0a3b555fc725",
                    "name": "directONE"
                },
                "network": {
                    "id": "fe99cf2d-3872-401e-9937-71dabec23742",
                    "name": "directONE",
                    "links": [
                        {
                            "rel": "describedby",
                            "href": "https://standard.ofds.info/en/0__4__0/network-schema.json"
                        }
                    ]
                },
                "featureType": "node"
            }
        },
        {
            "type": "Feature",
            "geometry": {
                "type": "Point",
                "coordinates": [
                    26.11049373027663,
                    44.42880270945867
                ]
            },
            "properties": {
                "name": "Bucharest",
                "id": "77cdaed9-3592-4d18-a03d-05c3cfe588e1",
                "networkProviders": [
                    {
                        "id": "f7e0f5f0-ef80-4c1e-8668-8bae435fe1a8",
                        "name": "directONE"
                    }
                ],
                "status": "operational",
                "transmissionMediumOwner": {
                    "id": "da0ebd8c-a970-4537-a157-0a3b555fc725",
                    "name": "directONE"
                },
                "network": {
                    "id": "fe99cf2d-3872-401e-9937-71dabec23742",
                    "name": "directONE",
                    "links": [
                        {
                            "rel": "describedby",
                            "href": "https://standard.ofds.info/en/0__4__0/network-schema.json"
                        }
                    ]
                },
                "featureType": "node"
            }
        },
        {
            "type": "Feature",
            "geometry": {
                "type": "Point",
                "coordinates": [
                    25.34088562280161,
                    43.97161299516642
                ]
            },
            "properties": {
                "name": "Alexandria",
                "id": "83f2a088-d7c8-4687-bde6-7d661f96ca03",
                "networkProviders": [
                    {
                        "id": "f7e0f5f0-ef80-4c1e-8668-8bae435fe1a8",
                        "name": "directONE"
                    }
                ],
                "status": "operational",
                "transmissionMediumOwner": {
                    "id": "da0ebd8c-a970-4537-a157-0a3b555fc725",
                    "name": "directONE"
                },
                "network": {
                    "id": "fe99cf2d-3872-401e-9937-71dabec23742",
                    "name": "directONE",
                    "links": [
                        {
                            "rel": "describedby",
                            "href": "https://standard.ofds.info/en/0__4__0/network-schema.json"
                        }
                    ]
                },
                "featureType": "node"
            }
        },
        {
            "type": "Feature",
            "geometry": {
                "type": "Point",
                "coordinates": [
                    25.966833917150367,
                    43.8969433226757
                ]
            },
            "properties": {
                "name": "Giurgiu",
                "id": "77152128-3d7e-4487-9440-81e9fb20cf52",
                "networkProviders": [
                    {
                        "id": "f7e0f5f0-ef80-4c1e-8668-8bae435fe1a8",
                        "name": "directONE"
                    }
                ],
                "status": "operational",
                "transmissionMediumOwner": {
                    "id": "da0ebd8c-a970-4537-a157-0a3b555fc725",
                    "name": "directONE"
                },
                "network": {
                    "id": "fe99cf2d-3872-401e-9937-71dabec23742",
                    "name": "directONE",
                    "links": [
                        {
                            "rel": "describedby",
                            "href": "https://standard.ofds.info/en/0__4__0/network-schema.json"
                        }
                    ]
                },
                "featureType": "node"
            }
        },
        {
            "type": "Feature",
            "geometry": {
                "type": "Point",
                "coordinates": [
                    25.24425330987203,
                    44.26252446648086
                ]
            },
            "properties": {
                "name": "Trivalea-Moşteni",
                "id": "97820285-674e-426c-955f-6825d74b53dc",
                "networkProviders": [
                    {
                        "id": "f7e0f5f0-ef80-4c1e-8668-8bae435fe1a8",
                        "name": "directONE"
                    }
                ],
                "status": "operational",
                "transmissionMediumOwner": {
                    "id": "da0ebd8c-a970-4537-a157-0a3b555fc725",
                    "name": "directONE"
                },
                "network": {
                    "id": "fe99cf2d-3872-401e-9937-71dabec23742",
                    "name": "directONE",
                    "links": [
                        {
                            "rel": "describedby",
                            "href": "https://standard.ofds.info/en/0__4__0/network-schema.json"
                        }
                    ]
                },
                "featureType": "node"
            }
        },
        {
            "type": "Feature",
            "geometry": {
                "type": "Point",
                "coordinates": [
                    22.81554182748648,
                    47.80688419972773
                ]
            },
            "properties": {
                "name": "default-node",
                "id": "6df7ad1e-5d37-4c88-9750-59e599d8ff24",
                "networkProviders": [
                    {
                        "id": "f7e0f5f0-ef80-4c1e-8668-8bae435fe1a8",
                        "name": "directONE"
                    }
                ],
                "status": "operational",
                "transmissionMediumOwner": {
                    "id": "da0ebd8c-a970-4537-a157-0a3b555fc725",
                    "name": "directONE"
                },
                "network": {
                    "id": "fe99cf2d-3872-401e-9937-71dabec23742",
                    "name": "directONE",
                    "links": [
                        {
                            "rel": "describedby",
                            "href": "https://standard.ofds.info/en/0__4__0/network-schema.json"
                        }
                    ]
                },
                "featureType": "node"
            }
        },
        {
            "type": "Feature",
            "geometry": {
                "type": "Point",
                "coordinates": [
                    25.05805052269718,
                    45.83822060060586
                ]
            },
            "properties": {
                "name": "default-node",
                "id": "9e13bbd1-9ce0-484a-827f-30e99c54a082",
                "networkProviders": [
                    {
                        "id": "f7e0f5f0-ef80-4c1e-8668-8bae435fe1a8",
                        "name": "directONE"
                    }
                ],
                "status": "operational",
                "transmissionMediumOwner": {
                    "id": "da0ebd8c-a970-4537-a157-0a3b555fc725",
                    "name": "directONE"
                },
                "network": {
                    "id": "fe99cf2d-3872-401e-9937-71dabec23742",
                    "name": "directONE",
                    "links": [
                        {
                            "rel": "describedby",
                            "href": "https://standard.ofds.info/en/0__4__0/network-schema.json"
                        }
                    ]
                },
                "featureType": "node"
            }
        }
    ]
}